"","State","City","Zip","Type","Status","County","County_FIPS","Name","Address","lat","long","NAICSDESCR","Source","Sourcedate","Owner","Beds","Trauma","Helipad","zip5","hospital_beds","hospital_trauma_level"
"1","IA","NEVADA","50201","CRITICAL ACCESS","OPEN","Story","19169","STORY COUNTY HOSPITAL","640 SOUTH 19TH STREET",42.005062341,-93.436913024,"GENERAL MEDICAL AND SURGICAL HOSPITALS","https://dia-hfd.iowa.gov/DIA_HFD/Process.do",2018-03-09,"GOVERNMENT - LOCAL",17,"LEVEL IV","Y",50201,17,"LEVEL IV"
"2","IA","ROCK RAPIDS","51246","CRITICAL ACCESS","OPEN","Lyon","19119","SANFORD ROCK RAPIDS MEDICAL CENTER","801 SOUTH GREENE STREET",43.423830007,-96.171989592,"GENERAL MEDICAL AND SURGICAL HOSPITALS","https://dia-hfd.iowa.gov/DIA_HFD/Process.do",2018-03-09,"NOT AVAILABLE",25,"LEVEL IV","Y",51246,25,"LEVEL IV"
"3","IA","DEWITT","52742","CRITICAL ACCESS","OPEN","Clinton","19045","GENESIS MEDICAL CENTER-DEWITT","1118 11TH STREET",41.826453331,-90.547482289,"GENERAL MEDICAL AND SURGICAL HOSPITALS","https://dia-hfd.iowa.gov/DIA_HFD/Process.do",2018-03-09,"NOT AVAILABLE",90,"LEVEL IV","Y",52742,90,"LEVEL IV"
"4","IA","LE MARS","51031","CRITICAL ACCESS","OPEN","Plymouth","19149","FLOYD VALLEY HOSPITAL","714 LINCOLN ST NE",42.7962369960001,-96.155625317,"GENERAL MEDICAL AND SURGICAL HOSPITALS","https://dia-hfd.iowa.gov/DIA_HFD/Process.do",2018-03-09,"NOT AVAILABLE",25,"LEVEL IV","NOT AVAILABLE",51031,25,"LEVEL IV"
"5","IA","CLARINDA","51632","GENERAL ACUTE CARE","CLOSED","Page","19145","CLARINDA MUNICIPAL HOSPITAL","17TH AND WELLS PO BOX 217",40.7297349,-95.040120869,"GENERAL MEDICAL AND SURGICAL HOSPITALS","https://dia-hfd.iowa.gov/DIA_HFD/Process.do",2018-03-09,"GOVERNMENT - LOCAL",25,"NOT AVAILABLE","NOT AVAILABLE",51632,25,NA
"6","IA","CLARINDA","51632","PSYCHIATRIC","OPEN","Page","19145","MENTAL HEALTH INSTITUTE","1800 NORTH 16TH STREET",40.757823231,-95.035580545,"GENERAL MEDICAL AND SURGICAL HOSPITALS","https://dia-hfd.iowa.gov/DIA_HFD/Process.do",2018-03-09,"GOVERNMENT - STATE",35,"NOT AVAILABLE","NOT AVAILABLE",51632,35,NA
"7","IA","MASON CITY","50401","GENERAL ACUTE CARE","OPEN","Cerro Gordo","19033","MERCY MEDICAL CENTER-NORTH IOWA","1000 FOURTH STREET SW",43.1500755810001,-93.216719309,"GENERAL MEDICAL AND SURGICAL HOSPITALS","https://dia-hfd.iowa.gov/DIA_HFD/Process.do",2018-03-09,"NOT AVAILABLE",346,"LEVEL II","Y",50401,346,"LEVEL II"
"8","IA","SHELDON","51201","CRITICAL ACCESS","OPEN","O'brien","19141","SANFORD SHELDON MEDICAL CENTER","118 NORTH 7TH AVENUE",43.1871186160001,-95.84643707,"GENERAL MEDICAL AND SURGICAL HOSPITALS","https://dia-hfd.iowa.gov/DIA_HFD/Process.do",2018-03-09,"NON-PROFIT",25,"LEVEL IV","Y",51201,25,"LEVEL IV"
"9","IA","SHENANDOAH","51601","CRITICAL ACCESS","OPEN","Page","19145","SHENANDOAH MEMORIAL HOSPITAL","300 PERSHING AVENUE",40.755084551,-95.373175211,"GENERAL MEDICAL AND SURGICAL HOSPITALS","https://dia-hfd.iowa.gov/DIA_HFD/Process.do",2018-03-09,"NON-PROFIT",25,"LEVEL IV","NOT AVAILABLE",51601,25,"LEVEL IV"
"10","IA","CHEROKEE","51012","PSYCHIATRIC","OPEN","Cherokee","19035","CHEROKEE MENTAL HEALTH INSTITUTE","1200 WEST CEDAR STREET",42.757162851,-95.5726143109999,"GENERAL MEDICAL AND SURGICAL HOSPITALS","https://dia-hfd.iowa.gov/DIA_HFD/Process.do",2018-03-09,"GOVERNMENT - STATE",58,"NOT AVAILABLE","NOT AVAILABLE",51012,58,NA
"11","IA","MASON CITY","50401","GENERAL ACUTE CARE","OPEN","Cerro Gordo","19033","NORTH IOWA MEDICAL CENTER WEST CAMPUS","910 NORTH EISENHOWER AVENUE",43.1555603210001,-93.264376537,"GENERAL MEDICAL AND SURGICAL HOSPITALS","https://dia-hfd.iowa.gov/DIA_HFD/Process.do",2018-03-09,"NON-PROFIT",240,"NOT AVAILABLE","NOT AVAILABLE",50401,240,NA
"12","IA","MOUNT PLEASANT","52641","PSYCHIATRIC","OPEN","Henry","19087","MENTAL HEALTH INSTITUTE","1200 EAST WASHINGTON STREET",40.95554287,-91.535949375,"GENERAL MEDICAL AND SURGICAL HOSPITALS","https://dia-hfd.iowa.gov/DIA_HFD/Process.do",2018-03-09,"GOVERNMENT - STATE",78,"NOT AVAILABLE","NOT AVAILABLE",52641,78,NA
"13","IA","INDEPENDENCE","50644","CRITICAL ACCESS","OPEN","Buchanan","19019","BUCHANAN COUNTY HEALTH CENTER","1600 FIRST STREET EAST",42.4703413570001,-91.8744237339999,"GENERAL MEDICAL AND SURGICAL HOSPITALS","https://dia-hfd.iowa.gov/DIA_HFD/Process.do",2018-03-09,"GOVERNMENT - LOCAL",25,"LEVEL IV","Y",50644,25,"LEVEL IV"
"14","IA","ELKADER","52043","CRITICAL ACCESS","OPEN","Clayton","19043","CENTRAL COMMUNITY HOSPITAL","901 DAVIDSON STREET NORTHWEST",42.856670088,-91.4075728729999,"GENERAL MEDICAL AND SURGICAL HOSPITALS","https://dia-hfd.iowa.gov/DIA_HFD/Process.do",2018-03-09,"NON-PROFIT",25,"LEVEL IV","NOT AVAILABLE",52043,25,"LEVEL IV"
"15","IA","NEWTON","50208","GENERAL ACUTE CARE","OPEN","Jasper","19099","SKIFF MEDICAL CENTER","204 N FOURTH AVE E",41.703065451,-93.051626756,"GENERAL MEDICAL AND SURGICAL HOSPITALS","https://dia-hfd.iowa.gov/DIA_HFD/Process.do",2018-03-09,"GOVERNMENT - LOCAL",68,"LEVEL IV","Y",50208,68,"LEVEL IV"
"16","IA","MARENGO","52301","CRITICAL ACCESS","OPEN","Iowa","19095","MARENGO MEMORIAL HOSPITAL","300 MAY STREET - BOX 228",41.802126168,-92.073517108,"GENERAL MEDICAL AND SURGICAL HOSPITALS","https://dia-hfd.iowa.gov/DIA_HFD/Process.do",2018-03-09,"GOVERNMENT - LOCAL",25,"LEVEL IV","Y",52301,25,"LEVEL IV"
"17","IA","MOUNT PLEASANT","52641","CRITICAL ACCESS","OPEN","Henry","19087","HENRY COUNTY HEALTH CENTER","407 S WHITE ST",40.962297639,-91.559509565,"GENERAL MEDICAL AND SURGICAL HOSPITALS","https://dia-hfd.iowa.gov/DIA_HFD/Process.do",2018-03-09,"GOVERNMENT - LOCAL",74,"LEVEL IV","Y",52641,74,"LEVEL IV"
"18","IA","COUNCIL BLUFFS","51502","GENERAL ACUTE CARE","OPEN","Pottawattamie","19155","CHI HEALTH MERCY HOSPITAL","800 MERCY DRIVE",41.2687867320001,-95.838794319,"GENERAL MEDICAL AND SURGICAL HOSPITALS","https://dia-hfd.iowa.gov/DIA_HFD/Process.do",2018-03-09,"NON-PROFIT",278,"LEVEL III","Y",51502,278,"LEVEL III"
"19","IA","CEDAR RAPIDS","52402","GENERAL ACUTE CARE","OPEN","Linn","19113","ST. LUKE'S METHODIST HOSPITAL","1026 A AVENUE NE",41.9852377180001,-91.660586683,"GENERAL MEDICAL AND SURGICAL HOSPITALS","https://dia-hfd.iowa.gov/DIA_HFD/Process.do",2018-03-09,"NON-PROFIT",540,"LEVEL III","Y",52402,540,"LEVEL III"
"20","IA","CLINTON","52732","GENERAL ACUTE CARE","OPEN","Clinton","19045","MERCY MEDICAL CENTER-CLINTON","1410 NORTH 4TH STREET",41.861501821,-90.189015528,"GENERAL MEDICAL AND SURGICAL HOSPITALS","https://dia-hfd.iowa.gov/DIA_HFD/Process.do",2018-03-09,"NON-PROFIT",175,"LEVEL IV","Y",52732,175,"LEVEL IV"
"21","IA","DES MOINES","50310","MILITARY","OPEN","Polk","19153","VA CENTRAL IOWA HEALTHCARE SYSTEM","3600 30TH STREET",41.627751447,-93.6606721649999,"GENERAL MEDICAL AND SURGICAL HOSPITALS","https://idph.iowa.gov/PublicHealthData/search",2018-05-11,"GOVERNMENT - FEDERAL",-999,"NOT AVAILABLE","NOT AVAILABLE",50310,NA,NA
"22","IA","CEDAR RAPIDS","52402","LONG TERM CARE","OPEN","Linn","19111","CONTINUING CARE HOSPITAL","1026 A AVENUE NE,6TH FLOOR",41.9857374050001,-91.65971818,"EXTENDED CARE HOSPITALS (EXCEPT MENTAL, SUBSTANCE ABUSE)","https://dia-hfd.iowa.gov/DIA_HFD/Process.do",2018-03-09,"NON-PROFIT",24,"NOT AVAILABLE","NOT AVAILABLE",52402,24,NA
"23","IA","DES MOINES","50314","LONG TERM CARE","OPEN","Polk","19153","SELECT SPECIALTY HOSPITAL - DES MOINES","1111 6TH AVENUE,4TH FLOOR",41.598876767,-93.622113815,"EXTENDED CARE HOSPITALS (EXCEPT MENTAL, SUBSTANCE ABUSE)","https://dia-hfd.iowa.gov/DIA_HFD/Process.do",2018-03-09,"PROPRIETARY",21,"NOT AVAILABLE","NOT AVAILABLE",50314,21,NA
"24","IA","CLINTON","52732","GENERAL ACUTE CARE","OPEN","Clinton","19045","MERCY REHABILITATION SERVICES","638 SOUTH BLUFF ROAD",41.840024289,-90.2137435659999,"GENERAL MEDICAL AND SURGICAL HOSPITALS","https://dia-hfd.iowa.gov/DIA_HFD/Process.do",2018-03-09,"NON-PROFIT",-999,"NOT AVAILABLE","NOT AVAILABLE",52732,NA,NA
"25","IA","COUNCIL BLUFFS","51503","GENERAL ACUTE CARE","OPEN","Pottawattamie","19155","METHODIST JENNIE EDMUNDSON","933 EAST PIERCE STREET",41.2685824590001,-95.835357469,"GENERAL MEDICAL AND SURGICAL HOSPITALS","https://dia-hfd.iowa.gov/DIA_HFD/Process.do",2018-03-09,"NOT AVAILABLE",236,"LEVEL III","Y",51503,236,"LEVEL III"
"26","IA","BLOOMFIELD","52537","CRITICAL ACCESS","OPEN","Davis","19051","DAVIS COUNTY HOSPITAL","509 NORTH MADISON STREET",40.759171446,-92.415524858,"GENERAL MEDICAL AND SURGICAL HOSPITALS","https://dia-hfd.iowa.gov/DIA_HFD/Process.do",2018-03-09,"GOVERNMENT - LOCAL",25,"LEVEL IV","Y",52537,25,"LEVEL IV"
"27","IA","HAMBURG","51640","CRITICAL ACCESS","OPEN","Fremont","19071","GEORGE C GRAPE COMMUNITY HOSPITAL","2959 US HIGHWAY 275",40.6204931300001,-95.650623149,"GENERAL MEDICAL AND SURGICAL HOSPITALS","https://dia-hfd.iowa.gov/DIA_HFD/Process.do",2018-03-09,"NON-PROFIT",25,"LEVEL IV","Y",51640,25,"LEVEL IV"
"28","IA","GRUNDY CENTER","50638","CRITICAL ACCESS","OPEN","Grundy","19075","GRUNDY COUNTY MEMORIAL HOSPITAL","201 EAST J AVENUE",42.3593931890001,-92.7619632829999,"GENERAL MEDICAL AND SURGICAL HOSPITALS","https://dia-hfd.iowa.gov/DIA_HFD/Process.do",2018-03-09,"GOVERNMENT - LOCAL",80,"LEVEL IV","Y",50638,80,"LEVEL IV"
"29","IA","GUTTENBERG","52052","CRITICAL ACCESS","OPEN","Clayton","19043","GUTTENBERG MUNICIPAL HOSPITAL","200 MAIN STREET",42.786127537,-91.0994611579999,"GENERAL MEDICAL AND SURGICAL HOSPITALS","https://dia-hfd.iowa.gov/DIA_HFD/Process.do",2018-03-09,"NOT AVAILABLE",25,"LEVEL IV","Y",52052,25,"LEVEL IV"
"30","IA","BRITT","50423","CRITICAL ACCESS","OPEN","Hancock","19081","HANCOCK COUNTY HEALTH SYSTEM","532 1ST ST NW",43.0982140290001,-93.8081952589999,"GENERAL MEDICAL AND SURGICAL HOSPITALS","https://dia-hfd.iowa.gov/DIA_HFD/Process.do",2018-03-09,"GOVERNMENT - LOCAL",25,"LEVEL IV","Y",50423,25,"LEVEL IV"
"31","IA","SIGOURNEY","52591","CRITICAL ACCESS","OPEN","Keokuk","19107","KEOKUK COUNTY HEALTH CENTER","23019 HIGHWAY 149",41.322506902,-92.206086953,"GENERAL MEDICAL AND SURGICAL HOSPITALS","https://dia-hfd.iowa.gov/DIA_HFD/Process.do",2018-03-09,"GOVERNMENT - LOCAL",25,"LEVEL IV","Y",52591,25,"LEVEL IV"
"32","IA","IOWA CITY","52246","MILITARY","OPEN","Johnson","19103","IOWA CITY VA MEDICAL CENTER","601 HIGHWAY 6 WEST",41.6637023010001,-91.548488514,"GENERAL MEDICAL AND SURGICAL HOSPITALS","https://idph.iowa.gov/PublicHealthData/search",2018-05-11,"GOVERNMENT - FEDERAL",-999,"NOT AVAILABLE","NOT AVAILABLE",52246,NA,NA
"33","IA","MUSCATINE","52761","GENERAL ACUTE CARE","OPEN","Muscatine","19139","TRINITY MUSCATINE","1518 MULBERRY AVENUE",41.433407824,-91.054457509,"GENERAL MEDICAL AND SURGICAL HOSPITALS","https://dia-hfd.iowa.gov/DIA_HFD/Process.do",2018-03-09,"NON-PROFIT",48,"LEVEL IV","Y",52761,48,"LEVEL IV"
"34","IA","OSCEOLA","50213","CRITICAL ACCESS","OPEN","Clarke","19039","CLARKE COUNTY PUBLIC HOSPITAL","800 SOUTH FILLMORE",41.026119131,-93.7685265819999,"GENERAL MEDICAL AND SURGICAL HOSPITALS","https://dia-hfd.iowa.gov/DIA_HFD/Process.do",2018-03-09,"GOVERNMENT - LOCAL",25,"LEVEL IV","Y",50213,25,"LEVEL IV"
"35","IA","NEW HAMPTON","50659","CRITICAL ACCESS","OPEN","Chickasaw","19037","MERCY MEDICAL CENTER-NEW HAMPTON","308 NORTH MAPLE AVENUE",43.062713032,-92.321544288,"GENERAL MEDICAL AND SURGICAL HOSPITALS","https://dia-hfd.iowa.gov/DIA_HFD/Process.do",2018-03-09,"NON-PROFIT",18,"LEVEL IV","Y",50659,18,"LEVEL IV"
"36","IA","ESTHERVILLE","51334","CRITICAL ACCESS","OPEN","Emmet","19063","AVERA HOLY FAMILY HOSPITAL","826 NORTH 8TH STREET",43.409986668,-94.8336579159999,"GENERAL MEDICAL AND SURGICAL HOSPITALS","https://dia-hfd.iowa.gov/DIA_HFD/Process.do",2018-03-09,"NON-PROFIT",25,"LEVEL IV","Y",51334,25,"LEVEL IV"
"37","IA","DYERSVILLE","52040","CRITICAL ACCESS","OPEN","Dubuque","19061","MERCY MEDICAL CENTER-DYERSVILLE","1111 3RD STREET SW",42.4756271380001,-91.130535681,"GENERAL MEDICAL AND SURGICAL HOSPITALS","https://dia-hfd.iowa.gov/DIA_HFD/Process.do",2018-03-09,"NOT AVAILABLE",25,"LEVEL IV","Y",52040,25,"LEVEL IV"
"38","IA","CHARLES CITY","50616","CRITICAL ACCESS","OPEN","Floyd","19067","FLOYD COUNTY MEMORIAL HOSPITAL","800 11TH ST",43.051454645,-92.683643714,"GENERAL MEDICAL AND SURGICAL HOSPITALS","https://dia-hfd.iowa.gov/DIA_HFD/Process.do",2018-03-09,"GOVERNMENT - LOCAL",25,"LEVEL IV","Y",50616,25,"LEVEL IV"
"39","IA","MANNING","51455","GENERAL ACUTE CARE","CLOSED","Carroll","19027","MANNING GENERAL HOSPITAL","410 MAIN STREET",41.9075688710001,-95.0647990529999,"GENERAL MEDICAL AND SURGICAL HOSPITALS","https://dia-hfd.iowa.gov/DIA_HFD/Process.do",2018-03-09,"NON-PROFIT",87,"NOT AVAILABLE","NOT AVAILABLE",51455,87,NA
"40","IA","SIOUX CENTER","51250","GENERAL ACUTE CARE","CLOSED","Sioux","19167","SIOUX CENTER COMMUNITY HOSPITAL & HEALTH CENTER","605 SOUTH MAIN AVENUE",43.072090782,-96.17607879,"GENERAL MEDICAL AND SURGICAL HOSPITALS","https://dia-hfd.iowa.gov/DIA_HFD/Process.do",2018-03-09,"NON-PROFIT",90,"LEVEL IV","NOT AVAILABLE",51250,90,"LEVEL IV"
"41","IA","ORANGE CITY","51041","GENERAL ACUTE CARE","CLOSED","Sioux","19167","ORANGE CITY MUNICIPAL HOSPITAL","403 N CENTRAL AVE",43.0096063400001,-96.058861037,"GENERAL MEDICAL AND SURGICAL HOSPITALS","https://dia-hfd.iowa.gov/DIA_HFD/Process.do",2018-03-09,"GOVERNMENT - LOCAL",104,"NOT AVAILABLE","NOT AVAILABLE",51041,104,NA
"42","IA","PRIMGHAR","51245","CRITICAL ACCESS","OPEN","O'brien","19141","BAUM-HARMON MEMORIAL HOSPITAL","255 NORTH WELCH AVENUE",43.088829048,-95.623680925,"GENERAL MEDICAL AND SURGICAL HOSPITALS","https://dia-hfd.iowa.gov/DIA_HFD/Process.do",2018-03-09,"NON-PROFIT",25,"LEVEL IV","Y",51245,25,"LEVEL IV"
"43","IA","GRINNELL","50112","GENERAL ACUTE CARE","OPEN","Poweshiek","19157","GRINNELL GENERAL HOSPITAL","210 FOURTH AVENUE",41.742673472,-92.734401149,"GENERAL MEDICAL AND SURGICAL HOSPITALS","https://dia-hfd.iowa.gov/DIA_HFD/Process.do",2018-03-09,"NON-PROFIT",49,"LEVEL III","Y",50112,49,"LEVEL III"
"44","IA","CORNING","50841","CRITICAL ACCESS","OPEN","Adams","19003","CHI HEALTH - MERCY CORNING","603 ROSARY DRIVE",40.989015819,-94.7484629849999,"GENERAL MEDICAL AND SURGICAL HOSPITALS","https://dia-hfd.iowa.gov/DIA_HFD/Process.do",2018-03-09,"NON-PROFIT",22,"NOT AVAILABLE","NOT AVAILABLE",50841,22,NA
"45","IA","LAKE CITY","51449","CRITICAL ACCESS","OPEN","Calhoun","19025","STEWART MEMORIAL COMMUNITY HOSPITAL","1301 WEST MAIN STREET",42.265617886,-94.749184051,"GENERAL MEDICAL AND SURGICAL HOSPITALS","https://dia-hfd.iowa.gov/DIA_HFD/Process.do",2018-03-09,"NON-PROFIT",25,"LEVEL IV","NOT AVAILABLE",51449,25,"LEVEL IV"
"46","IA","GREENFIELD","50849","CRITICAL ACCESS","OPEN","Adair","19001","ADAIR COUNTY MEMORIAL HOSPITAL","609 SE KENT ST",41.303797983,-94.4520354489999,"GENERAL MEDICAL AND SURGICAL HOSPITALS","https://dia-hfd.iowa.gov/DIA_HFD/Process.do",2018-03-09,"GOVERNMENT - LOCAL",25,"LEVEL IV","Y",50849,25,"LEVEL IV"
"47","IA","STORY CITY","50248","GENERAL ACUTE CARE","CLOSED","Story","19169","STORY CITY MEMORIAL HOSPITAL","812 ELM AVENUE",42.1900792550001,-93.5941180569999,"GENERAL MEDICAL AND SURGICAL HOSPITALS","https://dia-hfd.iowa.gov/DIA_HFD/Process.do",2018-03-09,"GOVERNMENT - LOCAL",25,"NOT AVAILABLE","NOT AVAILABLE",50248,25,NA
"48","IA","FORT MADISON","52627","GENERAL ACUTE CARE","OPEN","Lee","19111","FORT MADISON COMMUNITY HOSPITAL","5445 AVENUE O",40.625806771,-91.384313374,"GENERAL MEDICAL AND SURGICAL HOSPITALS","https://dia-hfd.iowa.gov/DIA_HFD/Process.do",2018-03-09,"NON-PROFIT",50,"LEVEL III","Y",52627,50,"LEVEL III"
"49","IA","AMES","50010","GENERAL ACUTE CARE","OPEN","Story","19169","MARY GREELEY MEDICAL CENTER","1111 DUFF AVE",42.0325913280001,-93.611506033,"GENERAL MEDICAL AND SURGICAL HOSPITALS","https://dia-hfd.iowa.gov/DIA_HFD/Process.do",2018-03-09,"GOVERNMENT - LOCAL",220,"LEVEL III","NOT AVAILABLE",50010,220,"LEVEL III"
"50","IA","NEVADA","50201","GENERAL ACUTE CARE","OPEN","Story","19169","STORY COUNTY HOSPITAL NORTH","640 6TH STREET",42.017098268,-93.452764762,"GENERAL MEDICAL AND SURGICAL HOSPITALS","https://dia-hfd.iowa.gov/DIA_HFD/Process.do",2018-03-09,"GOVERNMENT - LOCAL",17,"NOT AVAILABLE","Y",50201,17,NA
"51","IA","MANCHESTER","52057","GENERAL ACUTE CARE","OPEN","Delaware","19055","REGIONAL MEDICAL CENTER","709 WEST MAIN STREET",42.4849886700001,-91.4666245179999,"GENERAL MEDICAL AND SURGICAL HOSPITALS","https://dia-hfd.iowa.gov/DIA_HFD/Process.do",2018-03-09,"GOVERNMENT - LOCAL",25,"LEVEL IV","Y",52057,25,"LEVEL IV"
"52","IA","WEST BURLINGTON","52655","GENERAL ACUTE CARE","OPEN","Des Moines","19057","GREAT RIVER MEDICAL CENTER","1221 SOUTH GEAR AVENUE",40.80934797,-91.173080162,"GENERAL MEDICAL AND SURGICAL HOSPITALS","https://dia-hfd.iowa.gov/DIA_HFD/Process.do",2018-03-09,"NON-PROFIT",213,"LEVEL III","Y",52655,213,"LEVEL III"
"53","IA","MAQUOKETA","52060","CRITICAL ACCESS","OPEN","Jackson","19097","JACKSON COUNTY PUBLIC HOSPITAL","700 WEST GROVE STREET",42.072388871,-90.673322828,"GENERAL MEDICAL AND SURGICAL HOSPITALS","https://dia-hfd.iowa.gov/DIA_HFD/Process.do",2018-03-09,"GOVERNMENT - LOCAL",25,"LEVEL IV","Y",52060,25,"LEVEL IV"
"54","IA","BOONE","50036","CRITICAL ACCESS","OPEN","Boone","19015","BOONE COUNTY HOSPITAL","1015 UNION",42.0559935790001,-93.876962636,"GENERAL MEDICAL AND SURGICAL HOSPITALS","https://dia-hfd.iowa.gov/DIA_HFD/Process.do",2018-03-09,"GOVERNMENT - LOCAL",42,"LEVEL IV","Y",50036,42,"LEVEL IV"
"55","IA","BETTENDORF","52722","GENERAL ACUTE CARE","OPEN","Scott","19163","UNITY POINT HEALTH TRINITY","4500 UTICA RIDGE ROAD",41.566071806,-90.5197400609999,"GENERAL MEDICAL AND SURGICAL HOSPITALS","https://dia-hfd.iowa.gov/DIA_HFD/Process.do",2018-03-09,"NON-PROFIT",139,"LEVEL IV","Y",52722,139,"LEVEL IV"
"56","IA","WAVERLY","50677","CRITICAL ACCESS","OPEN","Bremer","19017","WAVERLY MUNICIPAL HOSPITAL","312 9TH STREET SW",42.722688787,-92.482576442,"GENERAL MEDICAL AND SURGICAL HOSPITALS","https://dia-hfd.iowa.gov/DIA_HFD/Process.do",2018-03-09,"GOVERNMENT - LOCAL",25,"LEVEL IV","Y",50677,25,"LEVEL IV"
"57","IA","CHEROKEE","51012","CRITICAL ACCESS","OPEN","Cherokee","19035","CHEROKEE REGIONAL MEDICAL CENTER","300 SIOUX VALLEY DRIVE",42.7594424330001,-95.54784298,"GENERAL MEDICAL AND SURGICAL HOSPITALS","https://dia-hfd.iowa.gov/DIA_HFD/Process.do",2018-03-09,"NOT AVAILABLE",25,"LEVEL IV","Y",51012,25,"LEVEL IV"
"58","IA","PERRY","50220","CRITICAL ACCESS","OPEN","Dallas","19049","DALLAS COUNTY HOSPITAL","610 TENTH STREET",41.8336315510001,-94.093892202,"GENERAL MEDICAL AND SURGICAL HOSPITALS","https://dia-hfd.iowa.gov/DIA_HFD/Process.do",2018-03-09,"GOVERNMENT - LOCAL",25,"LEVEL IV","Y",50220,25,"LEVEL IV"
"59","IA","IOWA FALLS","50126","CRITICAL ACCESS","OPEN","Hardin","19083","HANSEN FAMILY HOSPITAL","920 SOUTH OAK STREET",42.5006957530001,-93.2606865559999,"GENERAL MEDICAL AND SURGICAL HOSPITALS","https://dia-hfd.iowa.gov/DIA_HFD/Process.do",2018-03-09,"NOT AVAILABLE",35,"NOT AVAILABLE","NOT AVAILABLE",50126,35,NA
"60","IA","IDA GROVE","51445","CRITICAL ACCESS","OPEN","Ida","19093","HORN MEMORIAL HOSPITAL","701 E 2ND ST",42.338891156,-95.459817502,"GENERAL MEDICAL AND SURGICAL HOSPITALS","https://dia-hfd.iowa.gov/DIA_HFD/Process.do",2018-03-09,"NON-PROFIT",25,"LEVEL IV","Y",51445,25,"LEVEL IV"
"61","IA","FAIRFIELD","52556","CRITICAL ACCESS","OPEN","Jefferson","19101","JEFFERSON COUNTY HEALTH CENTER","2000 S MAIN",40.986462433,-91.965548697,"GENERAL MEDICAL AND SURGICAL HOSPITALS","https://dia-hfd.iowa.gov/DIA_HFD/Process.do",2018-03-09,"GOVERNMENT - LOCAL",25,"LEVEL IV","Y",52556,25,"LEVEL IV"
"62","IA","ANAMOSA","52205","CRITICAL ACCESS","OPEN","Jones","19105","JONES REGIONAL MEDICAL CENTER","1795 HIGHWAY 64 EAST",42.1015127470001,-91.262614849,"GENERAL MEDICAL AND SURGICAL HOSPITALS","https://dia-hfd.iowa.gov/DIA_HFD/Process.do",2018-03-09,"NOT AVAILABLE",22,"LEVEL IV","Y",52205,22,"LEVEL IV"
"63","IA","WAUKON","52172","CRITICAL ACCESS","OPEN","Allamakee","19005","VETERANS MEMORIAL HOSPITAL","40 1ST STREET SE",43.26867508,-91.474110992,"GENERAL MEDICAL AND SURGICAL HOSPITALS","https://dia-hfd.iowa.gov/DIA_HFD/Process.do",2018-03-09,"NOT AVAILABLE",25,"LEVEL IV","Y",52172,25,"LEVEL IV"
"64","IA","DENISON","51442","CRITICAL ACCESS","OPEN","Crawford","19047","CRAWFORD COUNTY MEMORIAL HOSPITAL","100 MEDICAL PARKWAY",42.02435225,-95.378023933,"GENERAL MEDICAL AND SURGICAL HOSPITALS","https://dia-hfd.iowa.gov/DIA_HFD/Process.do",2018-03-09,"GOVERNMENT - LOCAL",25,"LEVEL IV","Y",51442,25,"LEVEL IV"
"65","IA","WEST DES MOINES","50266","GENERAL ACUTE CARE","OPEN","Polk","19153","MERCY MEDICAL CENTER WEST LAKES","1755 59TH PLACE",41.597178474,-93.7897681429999,"GENERAL MEDICAL AND SURGICAL HOSPITALS","https://dia-hfd.iowa.gov/DIA_HFD/Process.do",2018-03-09,"NOT AVAILABLE",146,"LEVEL IV","Y",50266,146,"LEVEL IV"
"66","IA","WEST DES MOINES","50266","GENERAL ACUTE CARE","OPEN","Polk","19153","METHODIST WEST HOSPITAL","1660 60TH ST",41.5966082580001,-93.795709648,"GENERAL MEDICAL AND SURGICAL HOSPITALS","https://dia-hfd.iowa.gov/DIA_HFD/Process.do",2018-03-09,"NOT AVAILABLE",95,"LEVEL IV","Y",50266,95,"LEVEL IV"
"67","IA","KEOSAUQUA","52565","CRITICAL ACCESS","OPEN","Van Buren","19177","VAN BUREN COUNTY HOSPITAL","304 FRANKLIN STREET",40.736539195,-91.958044753,"GENERAL MEDICAL AND SURGICAL HOSPITALS","https://dia-hfd.iowa.gov/DIA_HFD/Process.do",2018-03-09,"GOVERNMENT - FEDERAL",25,"LEVEL IV","Y",52565,25,"LEVEL IV"
"68","IA","MISSOURI VALLEY","51555","CRITICAL ACCESS","OPEN","Harrison","19085","ALEGENT HEALTH COMMUNITY MEMORIAL HOSPITAL","631 N 8TH ST",41.5629436460001,-95.8856184699999,"GENERAL MEDICAL AND SURGICAL HOSPITALS","https://dia-hfd.iowa.gov/DIA_HFD/Process.do",2018-03-09,"NOT AVAILABLE",25,"LEVEL IV","Y",51555,25,"LEVEL IV"
"69","IA","KNOXVILLE","50138","MILITARY","OPEN","Marion","19125","DEPARTMENT OF VETERANS AFFAIRS MEDICAL CENTER","1515 WEST PLEASANT STREET",41.3225915950001,-93.114080646,"GENERAL MEDICAL AND SURGICAL HOSPITALS","https://dia-hfd.iowa.gov/DIA_HFD/Process.do",2018-03-09,"GOVERNMENT - FEDERAL",-999,"NOT AVAILABLE","NOT AVAILABLE",50138,NA,NA
"70","IA","SIBLEY","51249","CRITICAL ACCESS","OPEN","Osceola","19143","OSCEOLA COMMUNITY HOSPITAL","600 9TH AVENUE NORTH",43.4103078900001,-95.743098533,"GENERAL MEDICAL AND SURGICAL HOSPITALS","https://dia-hfd.iowa.gov/DIA_HFD/Process.do",2018-03-09,"NOT AVAILABLE",25,"LEVEL IV","Y",51249,25,"LEVEL IV"
"71","IA","CLARINDA","51632","CRITICAL ACCESS","OPEN","Page","19145","CLARINDA REGIONAL HEALTH CENTER","220 ESSIE DAVISON DRIVE",40.723481431,-95.043205603,"GENERAL MEDICAL AND SURGICAL HOSPITALS","https://dia-hfd.iowa.gov/DIA_HFD/Process.do",2018-03-09,"NOT AVAILABLE",25,"LEVEL IV","Y",51632,25,"LEVEL IV"
"72","IA","MANNING","51455","CRITICAL ACCESS","OPEN","Carroll","19027","MANNING REGIONAL HEALTHCARE","1550 6TH STREET",41.9045421970001,-95.075554217,"GENERAL MEDICAL AND SURGICAL HOSPITALS","https://dia-hfd.iowa.gov/DIA_HFD/Process.do",2018-03-09,"NOT AVAILABLE",17,"LEVEL IV","Y",51455,17,"LEVEL IV"
"73","IA","KNOXVILLE","50138","CRITICAL ACCESS","OPEN","Marion","19125","KNOXVILLE AREA COMMUNITY HOSPITAL","1002 SOUTH LINCOLN",41.311117805,-93.111819842,"GENERAL MEDICAL AND SURGICAL HOSPITALS","https://dia-hfd.iowa.gov/DIA_HFD/Process.do",2018-03-09,"NON-PROFIT",25,"LEVEL IV","Y",50138,25,"LEVEL IV"
"74","IA","PELLA","50219","CRITICAL ACCESS","OPEN","Marion","19125","PELLA REGIONAL HEALTH CENTER","404 JEFFERSON STREET",41.4130032400001,-92.910922564,"GENERAL MEDICAL AND SURGICAL HOSPITALS","https://dia-hfd.iowa.gov/DIA_HFD/Process.do",2018-03-09,"NON-PROFIT",25,"LEVEL III","Y",50219,25,"LEVEL III"
"75","IA","POCAHONTAS","50574","CRITICAL ACCESS","OPEN","Pocahontas","19151","POCAHONTAS COMMUNITY HOSPITAL","606 NORTHWEST 7TH",42.7410247870001,-94.6778750139999,"GENERAL MEDICAL AND SURGICAL HOSPITALS","https://dia-hfd.iowa.gov/DIA_HFD/Process.do",2018-03-09,"GOVERNMENT - LOCAL",25,"LEVEL IV","Y",50574,25,"LEVEL IV"
"76","IA","MOUNT AYR","50854","CRITICAL ACCESS","OPEN","Ringgold","19159","RINGGOLD COUNTY HOSPITAL","504 NORTH CLEVELAND STREET",40.7188233050001,-94.222578899,"GENERAL MEDICAL AND SURGICAL HOSPITALS","https://dia-hfd.iowa.gov/DIA_HFD/Process.do",2018-03-09,"GOVERNMENT - LOCAL",16,"LEVEL IV","Y",50854,16,"LEVEL IV"
"77","IA","HARLAN","51537","CRITICAL ACCESS","OPEN","Shelby","19165","MYRTUE MEMORIAL HOSPITAL","1213 GARFIELD AVENUE",41.6469823990001,-95.326837584,"GENERAL MEDICAL AND SURGICAL HOSPITALS","https://dia-hfd.iowa.gov/DIA_HFD/Process.do",2018-03-09,"GOVERNMENT - LOCAL",25,"LEVEL IV","Y",51537,25,"LEVEL IV"
"78","IA","CORALVILLE","52241","GENERAL ACUTE CARE","OPEN","Johnson","19103","IOWA MEDICAL AND CLASSIFICATION CENTER","2700 CORAL RIDGE AVENUE",41.713638062,-91.61097519,"GENERAL MEDICAL AND SURGICAL HOSPITALS","https://dia-hfd.iowa.gov/DIA_HFD/Process.do",2018-03-09,"GOVERNMENT - STATE",46,"NOT AVAILABLE","NOT AVAILABLE",52241,46,NA
"79","IA","HAWARDEN","51023","CRITICAL ACCESS","OPEN","Sioux","19167","HAWARDEN REGIONAL HEALTHCARE","1111 11TH STREET",42.9985740330001,-96.479848591,"GENERAL MEDICAL AND SURGICAL HOSPITALS","https://dia-hfd.iowa.gov/DIA_HFD/Process.do",2018-03-09,"GOVERNMENT - LOCAL",25,"LEVEL IV","Y",51023,25,"LEVEL IV"
"80","IA","ORANGE CITY","51041","CRITICAL ACCESS","OPEN","Sioux","19167","ORANGE CITY AREA HEALTH SYSTEM","1000 LINCOLN CIRCLE SE",42.994541542,-96.045110592,"GENERAL MEDICAL AND SURGICAL HOSPITALS","https://dia-hfd.iowa.gov/DIA_HFD/Process.do",2018-03-09,"GOVERNMENT - LOCAL",25,"LEVEL IV","Y",51041,25,"LEVEL IV"
"81","IA","CLARION","50525","CRITICAL ACCESS","OPEN","Wright","19197","IOWA SPECIALTY HOSPITAL-CLARION","1316 SOUTH MAIN STREET",42.7214000330001,-93.733247063,"HOSPITALS, SPECIALTY (EXCEPT PSYCHIATRIC, SUBSTANCE ABUSE)","https://dia-hfd.iowa.gov/DIA_HFD/Process.do",2018-03-09,"PROPRIETARY",25,"LEVEL IV","Y",50525,25,"LEVEL IV"
"82","IA","BELMOND","50421","CRITICAL ACCESS","OPEN","Wright","19197","IOWA SPECIALTY HOSPITAL - BELMOND","403 FIRST STREET SE",42.845270661,-93.612283486,"HOSPITALS, SPECIALTY (EXCEPT PSYCHIATRIC, SUBSTANCE ABUSE)","https://dia-hfd.iowa.gov/DIA_HFD/Process.do",2018-03-09,"PROPRIETARY",22,"LEVEL IV","Y",50421,22,"LEVEL IV"
"83","IA","SIOUX CENTER","51250","CRITICAL ACCESS","OPEN","Sioux","19167","SIOUX CENTER HEALTH","1101 9TH ST SE",43.0684930370001,-96.15806865,"GENERAL MEDICAL AND SURGICAL HOSPITALS","https://dia-hfd.iowa.gov/DIA_HFD/Process.do",2018-03-09,"NON-PROFIT",21,"NOT AVAILABLE","Y",51250,21,NA
"84","IA","WASHINGTON","52353","CRITICAL ACCESS","OPEN","Washington","19183","WASHINGTON COUNTY HOSPITAL","400 EAST POLK - PO BOX 909",41.2892483580001,-91.6876421869999,"GENERAL MEDICAL AND SURGICAL HOSPITALS","https://dia-hfd.iowa.gov/DIA_HFD/Process.do",2018-03-09,"GOVERNMENT - LOCAL",25,"LEVEL IV","Y",52353,25,"LEVEL IV"
"85","IA","CORYDON","50060","CRITICAL ACCESS","OPEN","Wayne","19185","WAYNE COUNTY HOSPITAL","417 SOUTH EAST STREET",40.7540510310001,-93.311521468,"GENERAL MEDICAL AND SURGICAL HOSPITALS","https://dia-hfd.iowa.gov/DIA_HFD/Process.do",2018-03-09,"GOVERNMENT - LOCAL",25,"LEVEL IV","Y",50060,25,"LEVEL IV"
"86","IA","DECORAH","52101","CRITICAL ACCESS","OPEN","Winneshiek","19191","WINNESHIEK COUNTY MEMORIAL HOSPITAL","901 MONTGOMERY STREET",43.294645492,-91.774273477,"GENERAL MEDICAL AND SURGICAL HOSPITALS","https://dia-hfd.iowa.gov/DIA_HFD/Process.do",2018-03-09,"GOVERNMENT - LOCAL",25,"LEVEL IV","Y",52101,25,"LEVEL IV"
"87","IA","ALGONA","50511","CRITICAL ACCESS","OPEN","Kossuth","19109","KOSSUTH COUNTY HOSPITAL","1515 SOUTH PHILLIPS",43.0565652170001,-94.22581258,"GENERAL MEDICAL AND SURGICAL HOSPITALS","https://dia-hfd.iowa.gov/DIA_HFD/Process.do",2018-03-09,"GOVERNMENT - LOCAL",25,"LEVEL IV","Y",50511,25,"LEVEL IV"
"88","IA","CARROLL","51401","GENERAL ACUTE CARE","OPEN","Carroll","19027","ST. ANTHONY'S REGIONAL HOSPITAL","311 SOUTH CLARK STREET",42.056495865,-94.86707423,"GENERAL MEDICAL AND SURGICAL HOSPITALS","https://dia-hfd.iowa.gov/DIA_HFD/Process.do",2018-03-09,"NON-PROFIT",99,"LEVEL IV","Y",51401,99,"LEVEL IV"
"89","IA","SAC CITY","50583","CRITICAL ACCESS","OPEN","Sac","19161","LORING HOSPITAL","211 HIGHLAND AVENUE",42.41899449,-94.979506715,"GENERAL MEDICAL AND SURGICAL HOSPITALS","https://dia-hfd.iowa.gov/DIA_HFD/Process.do",2018-03-09,"NON-PROFIT",25,"LEVEL IV","Y",50583,25,"LEVEL IV"
"90","IA","MOUNT AYR","50854","GENERAL ACUTE CARE","CLOSED","Ringgold","19159","RINGGOLD COUNTY HOSPITAL","211 SHELLWAY DRIVE",40.7121201840001,-94.246272669,"GENERAL MEDICAL AND SURGICAL HOSPITALS","https://dia-hfd.iowa.gov/DIA_HFD/Process.do",2018-03-09,"NON-PROFIT",16,"NOT AVAILABLE","NOT AVAILABLE",50854,16,NA
"91","IA","CRESTON","50801","CRITICAL ACCESS","OPEN","Union","19175","GREATER REGIONAL MEDICAL CENTER","1700 WEST TOWNLINE ROAD",41.0701663900001,-94.3840950059999,"GENERAL MEDICAL AND SURGICAL HOSPITALS","https://dia-hfd.iowa.gov/DIA_HFD/Process.do",2018-03-09,"GOVERNMENT - LOCAL",25,"LEVEL IV","Y",50801,25,"LEVEL IV"
"92","IA","AUDUBON","50025","CRITICAL ACCESS","OPEN","Audubon","19009","AUDUBON COUNTY MEMORIAL HOSPITAL","515 PACIFIC",41.7153517680001,-94.937836149,"GENERAL MEDICAL AND SURGICAL HOSPITALS","https://dia-hfd.iowa.gov/DIA_HFD/Process.do",2018-03-09,"GOVERNMENT - LOCAL",25,"LEVEL IV","Y",50025,25,"LEVEL IV"
"93","IA","ONAWA","51040","CRITICAL ACCESS","OPEN","Monona","19133","BURGESS MEMORIAL HOSPITAL","1600 DIAMOND AVENUE",42.0255307420001,-96.106395602,"GENERAL MEDICAL AND SURGICAL HOSPITALS","https://dia-hfd.iowa.gov/DIA_HFD/Process.do",2018-03-09,"NON-PROFIT",25,"LEVEL IV","Y",51040,25,"LEVEL IV"
"94","IA","RED OAK","51566","CRITICAL ACCESS","OPEN","Montgomery","19137","MONTGOMERY COUNTY MEMORIAL HOSPITAL","2301 EASTERN AVENUE",41.014317077,-95.216522459,"GENERAL MEDICAL AND SURGICAL HOSPITALS","https://dia-hfd.iowa.gov/DIA_HFD/Process.do",2018-03-09,"GOVERNMENT - LOCAL",25,"LEVEL IV","NOT AVAILABLE",51566,25,"LEVEL IV"
"95","IA","DENISON","51442","GENERAL ACUTE CARE","CLOSED","Crawford","19047","CRAWFORD COUNTY MEMORIAL HOSPITAL","2020 FIRST AVENUE SOUTH",42.0155322040001,-95.342352598,"GENERAL MEDICAL AND SURGICAL HOSPITALS","https://dia-hfd.iowa.gov/DIA_HFD/Process.do",2018-03-09,"GOVERNMENT - LOCAL",25,"NOT AVAILABLE","NOT AVAILABLE",51442,25,NA
"96","IA","SIOUX CITY","51104","PSYCHIATRIC","CLOSED","Woodbury","19193","MARIAN BEHAVIORAL HEALTH CENTER","2101 COURT STREET",42.513473445,-96.396444505,"GENERAL MEDICAL AND SURGICAL HOSPITALS","https://dia-hfd.iowa.gov/DIA_HFD/Process.do",2018-03-09,"NOT AVAILABLE",-999,"NOT AVAILABLE","Y",51104,NA,NA
"97","IA","SIOUX CITY","51101","GENERAL ACUTE CARE","OPEN","Woodbury","19193","MERCY MEDICAL CENTER SIOUX CITY","801 5TH STREET",42.4958422240001,-96.399903761,"GENERAL MEDICAL AND SURGICAL HOSPITALS","https://dia-hfd.iowa.gov/DIA_HFD/Process.do",2018-03-09,"NON-PROFIT",484,"LEVEL II","Y",51101,484,"LEVEL II"
"98","IA","JEFFERSON","50129","CRITICAL ACCESS","OPEN","Greene","19073","GREENE COUNTY MEDICAL CENTER","1000 WEST LINCOLNWAY",42.0159976360001,-94.388933659,"GENERAL MEDICAL AND SURGICAL HOSPITALS","https://dia-hfd.iowa.gov/DIA_HFD/Process.do",2018-03-09,"GOVERNMENT - LOCAL",25,"LEVEL IV","Y",50129,25,"LEVEL IV"
"99","IA","GLENWOOD","51534","GENERAL ACUTE CARE","OPEN","Mills","19129","GLENWOOD STATE HOSPITAL SCHOOL","711 SOUTH VINE STREET",41.039211944,-95.735566122,"GENERAL MEDICAL AND SURGICAL HOSPITALS","https://dia-hfd.iowa.gov/DIA_HFD/Process.do",2018-03-09,"GOVERNMENT - STATE",851,"NOT AVAILABLE","NOT AVAILABLE",51534,851,NA
"100","IA","DES MOINES","50310","PSYCHIATRIC","OPEN","Polk","19153","MERCY FRANKLIN CENTER","1818 48TH STREET",41.6107327660001,-93.683455222,"GENERAL MEDICAL AND SURGICAL HOSPITALS","https://dia-hfd.iowa.gov/DIA_HFD/Process.do",2018-03-09,"NON-PROFIT",18,"NOT AVAILABLE","NOT AVAILABLE",50310,18,NA
"101","IA","DES MOINES","50314","GENERAL ACUTE CARE","OPEN","Polk","19153","BROADLAWNS MEDICAL CENTER","1801 HICKMAN ROAD",41.6166160240001,-93.641774496,"GENERAL MEDICAL AND SURGICAL HOSPITALS","https://dia-hfd.iowa.gov/DIA_HFD/Process.do",2018-03-09,"GOVERNMENT - LOCAL",200,"LEVEL III","Y",50314,200,"LEVEL III"
"102","IA","IOWA FALLS","50126","GENERAL ACUTE CARE","CLOSED","Hardin","19083","ELLSWORTH MUNICIPAL HOSPITAL","110 ROCKSYLVANIA AVENUE",42.5220284660001,-93.259525745,"GENERAL MEDICAL AND SURGICAL HOSPITALS","https://dia-hfd.iowa.gov/DIA_HFD/Process.do",2018-03-09,"GOVERNMENT - LOCAL",23,"LEVEL IV","NOT AVAILABLE",50126,23,"LEVEL IV"
"103","IA","DAVENPORT","52806","LONG TERM CARE","OPEN","Scott","19163","SELECT SPECIALTY HOSPITAL-QUAD CITIES","1111 WEST KIMBERLY ROAD",41.5591535990001,-90.5890272889999,"GENERAL MEDICAL AND SURGICAL HOSPITALS","https://dia-hfd.iowa.gov/DIA_HFD/Process.do",2018-03-09,"PROPRIETARY",50,"NOT AVAILABLE","NOT AVAILABLE",52806,50,NA
"104","IA","SUMNER","50674","CRITICAL ACCESS","OPEN","Bremer","19017","COMMUNITY MEMORIAL HOSPITAL","909 WEST 1ST STREET",42.8469818570001,-92.109229353,"GENERAL MEDICAL AND SURGICAL HOSPITALS","https://dia-hfd.iowa.gov/DIA_HFD/Process.do",2018-03-09,"NON-PROFIT",25,"LEVEL IV","Y",50674,25,"LEVEL IV"
"105","IA","CHARITON","50049","GENERAL ACUTE CARE","OPEN","Lucas","19117","LUCAS COUNTY HEALTH CENTER","1200 NORTH 7TH STREET",41.02767377,-93.3017061529999,"GENERAL MEDICAL AND SURGICAL HOSPITALS","https://dia-hfd.iowa.gov/DIA_HFD/Process.do",2018-03-09,"GOVERNMENT - LOCAL",25,"LEVEL IV","Y",50049,25,"LEVEL IV"
"106","IA","CEDAR RAPIDS","52403","GENERAL ACUTE CARE","OPEN","Linn","19113","MERCY MEDICAL CENTER","701 TENTH STREET SE",41.9782564650001,-91.655828564,"GENERAL MEDICAL AND SURGICAL HOSPITALS","https://dia-hfd.iowa.gov/DIA_HFD/Process.do",2018-03-09,"NON-PROFIT",454,"LEVEL III","Y",52403,454,"LEVEL III"
"107","IA","ANAMOSA","52205","GENERAL ACUTE CARE","CLOSED","Jones","19105","ANAMOSA COMMUNITY HOSPITAL","104 BROADWAY PLACE",42.112923843,-91.288031406,"GENERAL MEDICAL AND SURGICAL HOSPITALS","https://dia-hfd.iowa.gov/DIA_HFD/Process.do",2018-03-09,"NON-PROFIT",38,"NOT AVAILABLE","Y",52205,38,NA
"108","IA","IOWA CITY","52242","GENERAL ACUTE CARE","OPEN","Johnson","19103","UNIVERSITY OF IOWA HOSPITAL & CLINICS","200 HAWKINS DRIVE",41.6608156890001,-91.5475474199999,"GENERAL MEDICAL AND SURGICAL HOSPITALS","https://dia-hfd.iowa.gov/DIA_HFD/Process.do",2018-03-09,"GOVERNMENT - STATE",1103,"LEVEL I, PEDIATRIC I","Y",52242,1103,"LEVEL I"
"109","IA","IOWA CITY","52245","GENERAL ACUTE CARE","OPEN","Johnson","19103","MERCY HOSPITAL","500 EAST MARKET STREET",41.663871483,-91.5279013639999,"GENERAL MEDICAL AND SURGICAL HOSPITALS","https://dia-hfd.iowa.gov/DIA_HFD/Process.do",2018-03-09,"NON-PROFIT",234,"LEVEL III","NOT AVAILABLE",52245,234,"LEVEL III"
"110","IA","OELWEIN","50662","CRITICAL ACCESS","OPEN","Fayette","19065","MERCY HOSPITAL OF FRANCISCAN SISTERS","201 8TH AVENUE SOUTHEAST",42.6754476460001,-91.9021483,"GENERAL MEDICAL AND SURGICAL HOSPITALS","https://dia-hfd.iowa.gov/DIA_HFD/Process.do",2018-03-09,"NON-PROFIT",25,"LEVEL IV","Y",50662,25,"LEVEL IV"
"111","IA","CEDAR FALLS","50613","GENERAL ACUTE CARE","OPEN","Black Hawk","19013","SARTORI MEMORIAL HOSPITAL","515 COLLEGE STREET",42.53353888,-92.45793731,"GENERAL MEDICAL AND SURGICAL HOSPITALS","https://dia-hfd.iowa.gov/DIA_HFD/Process.do",2018-03-09,"NON-PROFIT",101,"LEVEL IV","Y",50613,101,"LEVEL IV"
"112","IA","WATERLOO","50702","GENERAL ACUTE CARE","OPEN","Black Hawk","19013","COVENANT MEDICAL CENTER","3421 WEST 9TH STREET",42.461182869,-92.3458736169999,"GENERAL MEDICAL AND SURGICAL HOSPITALS","https://dia-hfd.iowa.gov/DIA_HFD/Process.do",2018-03-09,"NON-PROFIT",346,"LEVEL III","Y",50702,346,"LEVEL III"
"113","IA","CENTERVILLE","52544","CRITICAL ACCESS","OPEN","Appanoose","19007","MERCY MEDICAL CENTER-CENTERVILLE","ONE ST. JOSEPH DRIVE",40.755623529,-92.856900459,"GENERAL MEDICAL AND SURGICAL HOSPITALS","https://dia-hfd.iowa.gov/DIA_HFD/Process.do",2018-03-09,"NON-PROFIT",45,"LEVEL IV","Y",52544,45,"LEVEL IV"
"114","IA","OSAGE","50461","CRITICAL ACCESS","OPEN","Mitchell","19131","MITCHELL COUNTY MEMORIAL HOSPITAL","616 NORTH 8TH STREET",43.289528117,-92.808440624,"GENERAL MEDICAL AND SURGICAL HOSPITALS","https://dia-hfd.iowa.gov/DIA_HFD/Process.do",2018-03-09,"GOVERNMENT - LOCAL",25,"LEVEL IV","Y",50461,25,"LEVEL IV"
"115","IA","ALBIA","52531","CRITICAL ACCESS","OPEN","Monroe","19135","MONROE COUNTY HOSPITAL","6580 165TH ST",41.0434764510001,-92.796586879,"GENERAL MEDICAL AND SURGICAL HOSPITALS","https://dia-hfd.iowa.gov/DIA_HFD/Process.do",2018-03-09,"GOVERNMENT - LOCAL",25,"LEVEL IV","Y",52531,25,"LEVEL IV"
"116","IA","MARSHALLTOWN","50158","GENERAL ACUTE CARE","OPEN","Marshall","19127","UNITYPOINT HEALTH MARSHALLTOWN","THREE SOUTH FOURTH AVENUE",42.0484046390001,-92.90683107,"GENERAL MEDICAL AND SURGICAL HOSPITALS","https://dia-hfd.iowa.gov/DIA_HFD/Process.do",2018-03-09,"NON-PROFIT",125,"LEVEL III","Y",50158,125,"LEVEL III"
"117","IA","HAMPTON","50441","CRITICAL ACCESS","OPEN","Franklin","19069","FRANKLIN GENERAL HOSPITAL","1720 CENTRAL AVENUE EAST PO BOX 417",42.743562556,-93.185579575,"GENERAL MEDICAL AND SURGICAL HOSPITALS","https://dia-hfd.iowa.gov/DIA_HFD/Process.do",2018-03-09,"GOVERNMENT - LOCAL",25,"LEVEL IV","Y",50441,25,"LEVEL IV"
"118","IA","WEBSTER CITY","50595","CRITICAL ACCESS","OPEN","Hamilton","19079","VAN DIEST MEDICAL CENTER","2350 HOSPITAL DRIVE",42.4590672640001,-93.823496986,"GENERAL MEDICAL AND SURGICAL HOSPITALS","https://dia-hfd.iowa.gov/DIA_HFD/Process.do",2018-03-09,"GOVERNMENT - LOCAL",25,"LEVEL IV","Y",50595,25,"LEVEL IV"
"119","IA","WINTERSET","50273","CRITICAL ACCESS","OPEN","Madison","19121","MADISON COUNTY HEALTHCARE SYSTEM","300 WEST HUTCHINGS STREET",41.327997022,-94.016906013,"GENERAL MEDICAL AND SURGICAL HOSPITALS","https://dia-hfd.iowa.gov/DIA_HFD/Process.do",2018-03-09,"GOVERNMENT - LOCAL",25,"LEVEL IV","Y",50273,25,"LEVEL IV"
"120","IA","ATLANTIC","50022","CRITICAL ACCESS","OPEN","Cass","19029","CASS COUNTY MEMORIAL HOSPITAL","1501 EAST TENTH STREET",41.4013203580001,-94.991114561,"GENERAL MEDICAL AND SURGICAL HOSPITALS","https://dia-hfd.iowa.gov/DIA_HFD/Process.do",2018-03-09,"GOVERNMENT - LOCAL",33,"LEVEL IV","Y",50022,33,"LEVEL IV"
"121","IA","SPENCER","51301","GENERAL ACUTE CARE","OPEN","Clay","19041","SPENCER MUNICIPAL HOSPITAL","1200 FIRST AVENUE EAST",43.150026375,-95.143089864,"GENERAL MEDICAL AND SURGICAL HOSPITALS","https://dia-hfd.iowa.gov/DIA_HFD/Process.do",2018-03-09,"GOVERNMENT - LOCAL",99,"LEVEL IV","Y",51301,99,"LEVEL IV"
"122","IA","DES MOINES","50314","GENERAL ACUTE CARE","OPEN","Polk","19153","MERCY MEDICAL CENTER-DES MOINES","1111 6TH AVENUE",41.5987815890001,-93.6231191369999,"GENERAL MEDICAL AND SURGICAL HOSPITALS","https://dia-hfd.iowa.gov/DIA_HFD/Process.do",2018-03-09,"NOT AVAILABLE",656,"LEVEL II, PEDIATRIC II","Y",50314,656,"LEVEL II"
"123","IA","OSKALOOSA","52577","CRITICAL ACCESS","OPEN","Mahaska","19123","MAHASKA HEALTH PARTNERSHIP","1229 C AVENUE EAST",41.2992892890001,-92.629563587,"GENERAL MEDICAL AND SURGICAL HOSPITALS","https://dia-hfd.iowa.gov/DIA_HFD/Process.do",2018-03-09,"GOVERNMENT - LOCAL",33,"LEVEL III","Y",52577,33,"LEVEL III"
"124","IA","DUBUQUE","52001","GENERAL ACUTE CARE","OPEN","Dubuque","19061","UNITYPOINT HEALTHCARE-FINLEY HOSPITAL","350 NORTH GRANDVIEW AVENUE",42.496256982,-90.686159015,"GENERAL MEDICAL AND SURGICAL HOSPITALS","https://dia-hfd.iowa.gov/DIA_HFD/Process.do",2018-03-09,"NOT AVAILABLE",142,"LEVEL III","Y",52001,142,"LEVEL III"
"125","IA","INDEPENDENCE","50644","PSYCHIATRIC","OPEN","Buchanan","19019","MENTAL HEALTH INSITUTE HOSPITAL","2277 IOWA AVENUE",42.4569611910001,-91.926236698,"GENERAL MEDICAL AND SURGICAL HOSPITALS","https://dia-hfd.iowa.gov/DIA_HFD/Process.do",2018-03-09,"GOVERNMENT - STATE",95,"NOT AVAILABLE","NOT AVAILABLE",50644,95,NA
"126","IA","DES MOINES","50316","GENERAL ACUTE CARE","OPEN","Polk","19153","IOWA LUTHERAN HOSPITAL","700 UNIVERSITY",41.6020148740001,-93.6095958879999,"GENERAL MEDICAL AND SURGICAL HOSPITALS","https://dia-hfd.iowa.gov/DIA_HFD/Process.do",2018-03-09,"NON-PROFIT",224,"LEVEL IV","Y",50316,224,"LEVEL IV"
"127","IA","OTTUMWA","52501","GENERAL ACUTE CARE","OPEN","Wapello","19179","OTTUMWA REGIONAL HEALTH CENTER","1001 EAST PENNSYLVANIA",41.037389524,-92.3992936879999,"GENERAL MEDICAL AND SURGICAL HOSPITALS","https://dia-hfd.iowa.gov/DIA_HFD/Process.do",2018-03-09,"PROPRIETARY",217,"LEVEL IV","NOT AVAILABLE",52501,217,"LEVEL IV"
"128","IA","WEST UNION","52175","CRITICAL ACCESS","OPEN","Fayette","19065","PALMER LUTHERAN HEALTH CENTER","112 JEFFERSON",42.9682880450001,-91.810114875,"GENERAL MEDICAL AND SURGICAL HOSPITALS","https://dia-hfd.iowa.gov/DIA_HFD/Process.do",2018-03-09,"NON-PROFIT",25,"LEVEL IV","Y",52175,25,"LEVEL IV"
"129","IA","ROCK VALLEY","51247","CRITICAL ACCESS","OPEN","Sioux","19167","HEGG MEMORIAL HEALTH CENTER","1202 21ST AVENUE",43.202793872,-96.283968258,"GENERAL MEDICAL AND SURGICAL HOSPITALS","https://dia-hfd.iowa.gov/DIA_HFD/Process.do",2018-03-09,"NON-PROFIT",25,"LEVEL IV","Y",51247,25,"LEVEL IV"
"130","IA","KEOKUK","52632","GENERAL ACUTE CARE","OPEN","Lee","19111","KEOKUK AREA HOSPITAL","1600 MORGAN STREET",40.406943246,-91.387053597,"GENERAL MEDICAL AND SURGICAL HOSPITALS","https://dia-hfd.iowa.gov/DIA_HFD/Process.do",2018-03-09,"NON-PROFIT",71,"LEVEL IV","Y",52632,71,"LEVEL IV"
"131","IA","GUTHRIE CENTER","50115","CRITICAL ACCESS","OPEN","Guthrie","19077","GUTHRIE COUNTY HOSPITAL","710 NORTH 12TH STREET",41.6836194910001,-94.493676927,"GENERAL MEDICAL AND SURGICAL HOSPITALS","https://dia-hfd.iowa.gov/DIA_HFD/Process.do",2018-03-09,"GOVERNMENT - LOCAL",25,"LEVEL IV","Y",50115,25,"LEVEL IV"
"132","IA","DUBUQUE","52001","GENERAL ACUTE CARE","OPEN","Dubuque","19061","MERCY MEDICAL CENTER-DUBUQUE","250 MERCY DRIVE",42.4925056430001,-90.674778627,"GENERAL MEDICAL AND SURGICAL HOSPITALS","https://dia-hfd.iowa.gov/DIA_HFD/Process.do",2018-03-09,"NOT AVAILABLE",303,"LEVEL III","Y",52001,303,"LEVEL III"
"133","IA","DES MOINES","50308","GENERAL ACUTE CARE","OPEN","Polk","19153","IOWA METHODIST MEDICAL CENTER","1200 PLEASANT STREET",41.589443326,-93.63381099,"GENERAL MEDICAL AND SURGICAL HOSPITALS","https://dia-hfd.iowa.gov/DIA_HFD/Process.do",2018-03-09,"NON-PROFIT",460,"LEVEL I, PEDIATRIC II","Y",50308,460,"LEVEL I"
"134","IA","STORM LAKE","50588","CRITICAL ACCESS","OPEN","Buena Vista","19021","BUENA VISTA REGIONAL MEDICAL CENTER","1525 WEST FIFTH STREET",42.644782171,-95.222793005,"GENERAL MEDICAL AND SURGICAL HOSPITALS","https://dia-hfd.iowa.gov/DIA_HFD/Process.do",2018-03-09,"GOVERNMENT - LOCAL",35,"LEVEL IV","NOT AVAILABLE",50588,35,"LEVEL IV"
"135","IA","SIOUX CITY","51104","GENERAL ACUTE CARE","OPEN","Woodbury","19193","ST. LUKES'S REGIONAL MEDICAL CENTER","2720 STONE PARK BOULEVARD",42.5194501730001,-96.405942017,"GENERAL MEDICAL AND SURGICAL HOSPITALS","https://dia-hfd.iowa.gov/DIA_HFD/Process.do",2018-03-09,"NON-PROFIT",346,"LEVEL III","Y",51104,346,"LEVEL III"
"136","IA","SPIRIT LAKE","51360","GENERAL ACUTE CARE","OPEN","Dickinson","19059","LAKES REGIONAL HEALTHCARE","2301 HIGHWAY 71 SOUTH",43.417745634,-95.124672091,"GENERAL MEDICAL AND SURGICAL HOSPITALS","https://dia-hfd.iowa.gov/DIA_HFD/Process.do",2018-03-09,"GOVERNMENT - LOCAL",49,"LEVEL IV","Y",51360,49,"LEVEL IV"
"137","IA","HUMBOLDT","50548","CRITICAL ACCESS","OPEN","Humboldt","19091","HUMBOLDT COUNTY MEMORIAL HOSPITAL","1000 15TH STREET NORTH",42.732697409,-94.232213912,"GENERAL MEDICAL AND SURGICAL HOSPITALS","https://dia-hfd.iowa.gov/DIA_HFD/Process.do",2018-03-09,"GOVERNMENT - LOCAL",49,"LEVEL IV","Y",50548,49,"LEVEL IV"
"138","IA","DAVENPORT","52804","GENERAL ACUTE CARE","OPEN","Scott","19163","GENESIS MEDICAL CENTER WEST-DAVENPORT","1401 W CENTRAL PARK AVE",41.5436741300001,-90.5937651359999,"GENERAL MEDICAL AND SURGICAL HOSPITALS","https://dia-hfd.iowa.gov/DIA_HFD/Process.do",2018-03-09,"NOT AVAILABLE",502,"NOT AVAILABLE","NOT AVAILABLE",52804,502,NA
"139","IA","CRESCO","52136","CRITICAL ACCESS","OPEN","Howard","19089","REGIONAL HEALTH SERVICES OF HOWARD COUNTY","235 EIGHTH AVENUE WEST",43.3813765790001,-92.117994403,"GENERAL MEDICAL AND SURGICAL HOSPITALS","https://dia-hfd.iowa.gov/DIA_HFD/Process.do",2018-03-09,"GOVERNMENT - LOCAL",19,"LEVEL IV","Y",52136,19,"LEVEL IV"
"140","IA","LEON","50144","GENERAL ACUTE CARE","OPEN","Decatur","19053","DECATUR COUNTY HOSPITAL","1405 NORTHWEST CHURCH STREET",40.7508760800001,-93.745476151,"GENERAL MEDICAL AND SURGICAL HOSPITALS","https://dia-hfd.iowa.gov/DIA_HFD/Process.do",2018-03-09,"GOVERNMENT - LOCAL",25,"LEVEL IV","Y",50144,25,"LEVEL IV"
"141","IA","FORT DODGE","50501","GENERAL ACUTE CARE","OPEN","Webster","19187","TRINITY REGIONAL HOSPITAL","802 SOUTH KENYON ROAD",42.492210175,-94.192179572,"GENERAL MEDICAL AND SURGICAL HOSPITALS","https://dia-hfd.iowa.gov/DIA_HFD/Process.do",2018-03-09,"NON-PROFIT",200,"LEVEL III","Y",50501,200,"LEVEL III"
"142","IA","EMMETSBURG","50536","GENERAL ACUTE CARE","OPEN","Palo Alto","19147","PALO ALTO COUNTY HOSPITAL","3201 1ST STREET",43.1201937970001,-94.691241293,"GENERAL MEDICAL AND SURGICAL HOSPITALS","https://dia-hfd.iowa.gov/DIA_HFD/Process.do",2018-03-09,"GOVERNMENT - LOCAL",47,"LEVEL IV","Y",50536,47,"LEVEL IV"
"143","IA","DAVENPORT","52803","GENERAL ACUTE CARE","OPEN","Scott","19163","GENESIS MEDICAL CENTER-DAVENPORT","1227 EAST RUSHOLME STREET",41.5421679670001,-90.557257401,"GENERAL MEDICAL AND SURGICAL HOSPITALS","https://dia-hfd.iowa.gov/DIA_HFD/Process.do",2018-03-09,"NON-PROFIT",502,"LEVEL II","Y",52803,502,"LEVEL II"
"144","IA","VINTON","52349","CRITICAL ACCESS","OPEN","Benton","19011","VIRGINIA GAY HOSPITAL","502 NORTH 9TH AVENUE",42.1734205770001,-92.0125403869999,"GENERAL MEDICAL AND SURGICAL HOSPITALS","https://dia-hfd.iowa.gov/DIA_HFD/Process.do",2018-03-09,"NON-PROFIT",25,"LEVEL IV","Y",52349,25,"LEVEL IV"
"145","IA","WATERLOO","50703","GENERAL ACUTE CARE","OPEN","Black Hawk","19013","ALLEN MEMORIAL HOSPITAL","1825 LOGAN AVENUE",42.5267548160001,-92.33893747,"GENERAL MEDICAL AND SURGICAL HOSPITALS","https://dia-hfd.iowa.gov/DIA_HFD/Process.do",2018-03-09,"NON-PROFIT",12,"LEVEL III","Y",50703,12,"LEVEL III"
