"","county_number","county","aea","district_nces_code","district_number","district_name","school_nces_code","district_school_id","school_name","grade_start","grade_end","administrator","administrator_title","mailing_address","po_box","mailing_city","mailing_zip_code","phone_number","fax_number","email_address","physical_location","zip5","coords","public","type","geometry"
"1",86,"Tama",7,1900060,2682,"GMG  Comm School District",190006000179,172,"GMG Secondary School",7,12,"Nathan Kleinmeyer","Principal","306 Park Street","","Garwin","50632-9730",6414992005,6414992552,"nkleinmeyer@garwin.k12.ia.us","POINT (-92.67465500000002 42.09468)","50632","(-92.67465500000002 42.09468)",TRUE,"High",c(-92.674655, 42.09468)
"2",86,"Tama",7,1900060,2682,"GMG  Comm School District",190006000179,172,"GMG Secondary School",7,12,"Nathan Kleinmeyer","Principal","306 Park Street","","Garwin","50632-9730",6414992005,6414992552,"nkleinmeyer@garwin.k12.ia.us","POINT (-92.67465500000002 42.09468)","50632","(-92.67465500000002 42.09468)",TRUE,"Middle",c(-92.674655, 42.09468)
"3",82,"Scott",9,1908580,1611,"Davenport  Comm School District",190858000479,526,"McKinley Elementary School",0,5,"Aaron Vincent","Principal","1716 Kenwood Ave","","Davenport","52803",5637236800,5634455977,"vincenta@mail.davenport.k12.ia.us","POINT (-90.535945 41.536973)","52803","(-90.535945 41.536973)",TRUE,"Elementary",c(-90.535945, 41.536973)
"4",94,"Webster",5,1911820,2313,"Fort Dodge  Comm School District",191182000723,459,"Feelhaver Elementary School",0,4,"Nancy Cross","Principal","1300 14th Ave N","","Fort Dodge","50501",5155745680,5155745513,"ncross@fdschools.org","POINT (-94.185576 42.521102)","50501","(-94.185576 42.521102)",TRUE,"Elementary",c(-94.185576, 42.521102)
"5",77,"Polk",11,1928680,6579,"Urbandale  Comm School District",192868002069,448,"Valerius Elementary School",0,5,"Meredith Mauro","Principal","3305 92nd Street","","Urbandale","50322-4092",5154576500,5154576504,"maurom@urbandaleschools.com","POINT (-93.743666 41.625371)","50322","(-93.743666 41.625371)",TRUE,"Elementary",c(-93.743666, 41.625371)
"6",97,"Woodbury",12,1926400,6039,"Sioux City  Comm School District",NA,423,"Clark Early Childhood Center",0,0,"Amy Denney","Principal","4315 Hamilton Blvd","","Sioux City","51104",7122397030,7122244021,"dennya@live.siouxcityschools.com","POINT (-96.407443 42.54413)","51104","(-96.407443 42.54413)",TRUE,"Elementary",c(-96.407443, 42.54413)
"7",77,"Polk",11,1915450,3231,"Johnston  Comm School District",191545000478,415,"Beaver Creek Elem School",0,5,"Eric Toot","Principal","8701 Lyndhurst","PO Box 10","Johnston","50131",5152786228,5152781049,"etoot@johnston.k12.ia.us","POINT (-93.73644700000001 41.678766)","50131","(-93.73644700000001 41.678766)",TRUE,"Elementary",c(-93.736447, 41.678766)
"8",85,"Story",11,1903540,225,"Ames  Comm School District",190354000053,440,"Fellows Elementary School",0,5,"Brandon Schrauth","Principal","1235 20th St","","Ames","50010",5152393765,5152393837,"brandon.schrauth@ames.k12.ia.us","POINT (-93.626421 42.042006)","50010","(-93.626421 42.042006)",TRUE,"Elementary",c(-93.626421, 42.042006)
"9",76,"Pocahontas",5,1923190,5283,"Pocahontas Area  Comm School District",192319001372,409,"Pocahontas Area Elementary School",0,6,"Aaron Davidson","Principal","202 1st Ave SW","","Pocahontas","50574",7123354642,7123353627,"adavidson@pocahontas.k12.ia.us","POINT (-94.672859 42.731585)","50574","(-94.672859 42.731585)",TRUE,"Elementary",c(-94.672859, 42.731585)
"10",76,"Pocahontas",5,NA,5283,"",NA,8102,"Pocahontas Catholic Grade School",0,5,"Terry Eisenbarth","Principal","305 SW 3rd","","Pocahontas","50574",7123353603,7123353603,"terryeisenbarth@pokycatholic.org","POINT (-94.662307 42.732611)","50574","(-94.662307 42.732611)",TRUE,"Elementary",c(-94.662307, 42.732611)
"11",91,"Warren",11,1914640,3114,"Indianola  Comm School District",191464000875,431,"Indianola Middle School",6,8,"Annette Jauron","Principal","403 S 15th St","","Indianola","50125",5159619530,5159619535,"annette.jauron@indianola.k12.ia.us","POINT (-93.539753 41.35544)","50125","(-93.539753 41.35544)",TRUE,"Middle",c(-93.539753, 41.35544)
"12",85,"Story",11,1903540,225,"Ames  Comm School District",190354001906,961,"Northwood Pre-School",0,0,"Kristin Barber","Principal","3012 Duff Avenue","","Ames","50010",5152682470,5152682475,"kristin.barber@ames.k12.ia.us","POINT (-93.618975 42.051193)","50010","(-93.618975 42.051193)",TRUE,"Elementary",c(-93.618975, 42.051193)
"13",98,"Worth",7,1921210,4788,"Northwood-Kensett  Comm School District",192121001271,109,"Northwood-Kensett Jr-Sr High School",7,12,"Keith Fritz","Principal","704 7th St N","PO Box 289","Northwood","50459-0289",6413242142,6413242174,"kfritz@nkvikings.com","POINT (-93.222279 43.454252)","50459","(-93.222279 43.454252)",TRUE,"High",c(-93.222279, 43.454252)
"14",98,"Worth",7,1921210,4788,"Northwood-Kensett  Comm School District",192121001271,109,"Northwood-Kensett Jr-Sr High School",7,12,"Keith Fritz","Principal","704 7th St N","PO Box 289","Northwood","50459-0289",6413242142,6413242174,"kfritz@nkvikings.com","POINT (-93.222279 43.454252)","50459","(-93.222279 43.454252)",TRUE,"Middle",c(-93.222279, 43.454252)
"15",77,"Polk",11,1908970,1737,"Des Moines Independent  Comm School District",190897000540,236,"Harding Middle School",6,8,"Joy Linquist","Principal","203 E Euclid Ave","","Des Moines","50313",5152428445,5152443566,"joy.linquist@dmschools.org","POINT (-93.616215 41.627682)","50313","(-93.616215 41.627682)",TRUE,"Middle",c(-93.616215, 41.627682)
"16",77,"Polk",11,1903690,261,"Ankeny  Comm School District",190369000148,447,"Northeast Elementary",0,5,"Tara Owen","Principal","1705 NE Trilein","","Ankeny","50021-0189",5159659620,5159659621,"tara.owen@ankenyschools.org","POINT (-93.589447 41.744444)","50021","(-93.589447 41.744444)",TRUE,"Elementary",c(-93.589447, 41.744444)
"17",97,"Woodbury",12,NA,4033,"",NA,8103,"Danbury Catholic School",0,6,"Amy Seuntjens","Principal","602 Peach St","","Danbury","51019",7128832244,7128832024,"dcathleadteacher@gmail.com","POINT (-95.717779 42.236783)","51019","(-95.717779 42.236783)",TRUE,"Elementary",c(-95.717779, 42.236783)
"18",82,"Scott",9,1908580,1611,"Davenport  Comm School District",190858000465,427,"Garfield Elementary School",0,5,"Tom Green","Principal","902 E 29th St","","Davenport","52803",5637236450,5634455971,"greent@davenportschools.org","POINT (-90.561397 41.549204)","52803","(-90.561397 41.549204)",TRUE,"Elementary",c(-90.561397, 41.549204)
"19",77,"Polk",11,1928680,6579,"Urbandale  Comm School District",192868001413,455,"Webster Elementary School",0,5,"Erin Shearer","Principal","12955 Aurora Avenue","","Urbandale","50323-2464",5153318600,5153318604,"shearere@urbandaleschools.com","POINT (-93.796497 41.636764)","50323","(-93.796497 41.636764)",TRUE,"Elementary",c(-93.796497, 41.636764)
"20",77,"Polk",11,1908970,1737,"Des Moines Independent  Comm School District",190897000548,616,"Jefferson Elementary School",0,5,"Mary Minard","Principal","2425 Watrous Ave","","Des Moines","50321",5152428416,5152878601,"mary.minard@dmschools.org","POINT (-93.650365 41.548238)","50321","(-93.650365 41.548238)",TRUE,"Elementary",c(-93.650365, 41.548238)
"21",82,"Scott",9,1923110,5250,"Pleasant Valley  Comm School District",192311001366,411,"Riverdale Heights Elem School",0,6,"Jennifer Gertson","Principal","2125 Devils Glen Rd","","Bettendorf","52722",5633320525,5633320224,"gertsonjennifer@pleasval.k12.ia.us","POINT (-90.483735 41.544807)","52722","(-90.483735 41.544807)",TRUE,"Elementary",c(-90.483735, 41.544807)
"22",77,"Polk",11,1903690,261,"Ankeny  Comm School District",190369002094,418,"Ashland Ridge Elementary",0,5,"Mark Moss","Principal","2600 NW Ash Drive","","Ankeny","50023",5159659594,5159659593,"mark.moss@ankenyschools.org","POINT (-93.60993900000001 41.753021)","50023","(-93.60993900000001 41.753021)",TRUE,"Elementary",c(-93.609939, 41.753021)
"23",94,"Webster",5,1911820,2313,"Fort Dodge  Comm School District",191182002171,509,"Riverside ELC",0,1,"Tabitha Acree","Principal","733 F St","","Fort Dodge","50501",5155745740,5159558818,"tacree@fort-dodge.k12.ia.us","POINT (-94.198595 42.496282)","50501","(-94.198595 42.496282)",TRUE,"Elementary",c(-94.198595, 42.496282)
"24",82,"Scott",9,NA,1611,"",NA,8109,"St Paul The Apostle School",0,8,"Julie  Delaney","Principal","1007 E Rusholme St","NULL","Davenport","52803",5633222923,5633222530,"Julie.Delaney@st-paul.pvt.k12.ia.us","POINT (-90.560599 41.54286)","52803","(-90.560599 41.54286)",TRUE,"Elementary",c(-90.560599, 41.54286)
"25",82,"Scott",9,NA,1611,"",NA,8109,"St Paul The Apostle School",0,8,"Julie  Delaney","Principal","1007 E Rusholme St","NULL","Davenport","52803",5633222923,5633222530,"Julie.Delaney@st-paul.pvt.k12.ia.us","POINT (-90.560599 41.54286)","52803","(-90.560599 41.54286)",TRUE,"Middle",c(-90.560599, 41.54286)
"26",77,"Polk",11,1930930,6957,"West Des Moines  Comm School District",193093000393,118,"Walnut Creek Campus",9,12,"Kim Davis","Principal","1020 8th Street","","West Des Moines","50265",5156336480,5156336499,"davisk@wdmcs.org","POINT (-93.713066 41.586342)","50265","(-93.713066 41.586342)",TRUE,"High",c(-93.713066, 41.586342)
"27",94,"Webster",5,1911820,2313,"Fort Dodge  Comm School District",191182000722,454,"Duncombe Elementary School",0,4,"Patrick Reding","Principal","416 So. 10th St.","","Fort Dodge","50501",5155745623,5155768774,"preding@fort-dodge.k12.ia.us","POINT (-94.183555 42.50123)","50501","(-94.183555 42.50123)",TRUE,"Elementary",c(-94.183555, 42.50123)
"28",85,"Story",11,NA,225,"",NA,8104,"St Cecilia School",0,5,"Ervin Rowlands","Principal","2900 Hoover Ave","","Ames","50010",5152325290,5152322875,"erowlands@stceciliaschoolames.org","POINT (-93.630255 42.05011)","50010","(-93.630255 42.05011)",TRUE,"Elementary",c(-93.630255, 42.05011)
"29",75,"Plymouth",12,NA,5486,"",NA,8000,"St Catherine-St Mary School System",0,12,"Dan Ryan","Superintendent","523 Madison St","PO Box 500","Remsen","51050",7127861433,7127862499,"danr@scdiocese.org","POINT (-95.96926 42.811161)","51050","(-95.96926 42.811161)",TRUE,"Elementary",c(-95.96926, 42.811161)
"30",75,"Plymouth",12,NA,5486,"",NA,8000,"St Catherine-St Mary School System",0,12,"Dan Ryan","Superintendent","523 Madison St","PO Box 500","Remsen","51050",7127861433,7127862499,"danr@scdiocese.org","POINT (-95.96926 42.811161)","51050","(-95.96926 42.811161)",TRUE,"High",c(-95.96926, 42.811161)
"31",75,"Plymouth",12,NA,5486,"",NA,8000,"St Catherine-St Mary School System",0,12,"Dan Ryan","Superintendent","523 Madison St","PO Box 500","Remsen","51050",7127861433,7127862499,"danr@scdiocese.org","POINT (-95.96926 42.811161)","51050","(-95.96926 42.811161)",TRUE,"Middle",c(-95.96926, 42.811161)
"32",77,"Polk",11,1930930,6957,"West Des Moines  Comm School District",193093001798,472,"Western Hills Elementary School",0,6,"George Panosh","Principal","600 39th St","","West Des Moines","50265",5156335900,5156335999,"panoshg@wdmcs.org","POINT (-93.756452 41.578004)","50265","(-93.756452 41.578004)",TRUE,"Elementary",c(-93.756452, 41.578004)
"33",97,"Woodbury",12,1926400,6039,"Sioux City  Comm School District",192640001530,607,"Sunnyside Elementary School",3,5,"Blair Taylor","Principal","2700 S Maple St","","Sioux City","51106-4127",7122744047,7122744680,"taylorb@live.siouxcityschools.com","POINT (-96.339947 42.46183)","51106","(-96.339947 42.46183)",TRUE,"Elementary",c(-96.339947, 42.46183)
"34",90,"Wapello",15,1922110,5049,"Ottumwa  Comm School District",192211002034,301,"Ottumwa Community Preschool",0,0,"Karie Martindale","Principal","608 E Williams","","Ottumwa","52501",6416847179,6416832650,"karie.martindale@ottumwaschools.com","POINT (-92.416676 40.998317)","52501","(-92.416676 40.998317)",TRUE,"Elementary",c(-92.416676, 40.998317)
"35",78,"Pottawattamie",13,1908220,1476,"Council Bluffs  Comm School District",190822000414,425,"Crescent Elementary School",0,5,"Janine Crain","Principal","401 East Welch Street","PO Box 17","Crescent","51526",7125453697,7125453908,"jcrain@cbcsd.org","POINT (-95.853709 41.364599)","51526","(-95.853709 41.364599)",TRUE,"Elementary",c(-95.853709, 41.364599)
"36",77,"Polk",11,1905070,720,"Bondurant-Farrar  Comm School District",190507002125,209,"Bondurant - Farrar Middle School",6,8,"Mike Kramer","Principal","300 Garfield St. SW","","Bondurant","50035",5159673711,5159579924,"mike_kramer@bondurant.k12.ia.us","POINT (-93.464561 41.698711)","50035","(-93.464561 41.698711)",TRUE,"Middle",c(-93.464561, 41.698711)
"37",77,"Polk",11,NA,1737,"",NA,8108,"Holy Family School",0,8,"Martin Flaherty","Principal","1265 E. 9th St.","NULL","Des Moines","50316",5152628025,5152629665,"mpflaherty@hfsdm.org","POINT (-93.606554 41.601732)","50316","(-93.606554 41.601732)",TRUE,"Elementary",c(-93.606554, 41.601732)
"38",77,"Polk",11,NA,1737,"",NA,8108,"Holy Family School",0,8,"Martin Flaherty","Principal","1265 E. 9th St.","NULL","Des Moines","50316",5152628025,5152629665,"mpflaherty@hfsdm.org","POINT (-93.606554 41.601732)","50316","(-93.606554 41.601732)",TRUE,"Middle",c(-93.606554, 41.601732)
"39",77,"Polk",11,1920910,4779,"North Polk  Comm School District",192091001923,412,"North Polk Central Elementary School",0,5,"Morgan Miller","Principal","311 NE 141st Ave","","Alleman","50007",5159843400,5156852304,"morgan.miller@northpolk.org","POINT (-93.61370400000001 41.818529)","50007","(-93.61370400000001 41.818529)",TRUE,"Elementary",c(-93.613704, 41.818529)
"40",78,"Pottawattamie",13,1908220,1476,"Council Bluffs  Comm School District",190822000431,544,"Roosevelt Elementary School",0,5,"Brett Abbotts","Principal","517 N 17th St","","Council Bluffs","51501",7123286528,7123286566,"babbotts@cbcsd.org","POINT (-95.869056 41.266643)","51501","(-95.869056 41.266643)",TRUE,"Elementary",c(-95.869056, 41.266643)
"41",77,"Polk",11,NA,1737,"",NA,8117,"Christ The King School",0,8,"Charles Geilenfeld","Principal","701 Wall Ave","","Des Moines","50315",5152853349,5152850381,"cgeilenfeld@cksdesmoines.com","POINT (-93.623344 41.531935)","50315","(-93.623344 41.531935)",TRUE,"Elementary",c(-93.623344, 41.531935)
"42",77,"Polk",11,NA,1737,"",NA,8117,"Christ The King School",0,8,"Charles Geilenfeld","Principal","701 Wall Ave","","Des Moines","50315",5152853349,5152850381,"cgeilenfeld@cksdesmoines.com","POINT (-93.623344 41.531935)","50315","(-93.623344 41.531935)",TRUE,"Middle",c(-93.623344, 41.531935)
"43",90,"Wapello",15,1922110,5049,"Ottumwa  Comm School District",192211001328,517,"Wilson Elementary School",0,5,"Jeff Hendred","Principal","1102 E. 4th St.","","Ottumwa","52501",6416845441,6416844934,"jeff.hendred@ottumwaschools.com","POINT (-92.399947 41.01513)","52501","(-92.399947 41.01513)",TRUE,"Elementary",c(-92.399947, 41.01513)
"44",91,"Warren",11,1914640,3114,"Indianola  Comm School District",191464000876,436,"Whittier Elementary School",0,5,"Ed  Johnson","Principal","1306 W Salem","","Indianola","50125",5159619570,5159619575,"ed.johnson@indianola.k12.ia.us","POINT (-93.57843800000002 41.360427)","50125","(-93.57843800000002 41.360427)",TRUE,"Elementary",c(-93.578438, 41.360427)
"45",77,"Polk",11,1908970,1737,"Des Moines Independent  Comm School District",190897000521,445,"Cattell Elementary School",0,5,"Tiona Sandbulte","Principal","3101 E 12th St","","Des Moines","50316",5152428403,5152661605,"tiona.sandbulte@dmschools.org","POINT (-93.604747 41.623238)","50316","(-93.604747 41.623238)",TRUE,"Elementary",c(-93.604747, 41.623238)
"46",77,"Polk",11,1908970,1737,"Des Moines Independent  Comm School District",190897001596,435,"Carver Elementary",0,5,"Jill Burnett-Requist","Principal","705 E University Ave","","Des Moines","50316",5152428418,5152621095,"jill.burnettrequist@dmschools.org","POINT (-93.610485 41.600358)","50316","(-93.610485 41.600358)",TRUE,"Elementary",c(-93.610485, 41.600358)
"47",82,"Scott",9,1908580,1611,"Davenport  Comm School District",190858000470,463,"Hayes Elementary School",0,5,"Sara Gott","Principal","622 S Concord St","","Davenport","52802",5637236600,5634455973,"gottsa@davenportschools.org","POINT (-90.622255 41.512529)","52802","(-90.622255 41.512529)",TRUE,"Elementary",c(-90.622255, 41.512529)
"48",86,"Tama",7,1900022,6536,"Union  Comm School District",190002202013,250,"Union Middle School",6,8,"Mark Albertsen","Principal","505 West","","Dysart","52224-0159",3194765100,3194762385,"m_albertsen@union.k12.ia.us","POINT (-92.314171 42.168664)","52224","(-92.314171 42.168664)",TRUE,"Middle",c(-92.314171, 42.168664)
"49",88,"Union",13,NA,1503,"",NA,8101,"St Malachy School",0,8,"Jennifer Simmons","Principal","403 W Clark","","Creston","50801",6417827125,6417825924,"jsimmons@crestonstmalachy.org","POINT (-94.36466 41.054979)","50801","(-94.36466 41.054979)",TRUE,"Elementary",c(-94.36466, 41.054979)
"50",88,"Union",13,NA,1503,"",NA,8101,"St Malachy School",0,8,"Jennifer Simmons","Principal","403 W Clark","","Creston","50801",6417827125,6417825924,"jsimmons@crestonstmalachy.org","POINT (-94.36466 41.054979)","50801","(-94.36466 41.054979)",TRUE,"Middle",c(-94.36466, 41.054979)
"51",78,"Pottawattamie",13,1927990,6460,"Tri-Center  Comm School District",192799001630,417,"Tri-Center Elementary School",0,5,"Jami Helgenberger","Principal","33980 310th St","","Neola","51559",7124852271,7124852027,"jhelgenberger@tctrojans.org","POINT (-95.594112 41.504331)","51559","(-95.594112 41.504331)",TRUE,"Elementary",c(-95.594112, 41.504331)
"52",77,"Polk",11,NA,1737,"",NA,8120,"Sterling West - Des Moines",3,12,"John Van Ess","Coordinator/Department Head","3720 E 29th St","","Des Moines","50317-4230",5152665065,5152637035,"John.vaness@sterlinged.org","POINT (-93.56120200000001 41.628854)","50317","(-93.56120200000001 41.628854)",TRUE,"Elementary",c(-93.561202, 41.628854)
"53",77,"Polk",11,NA,1737,"",NA,8120,"Sterling West - Des Moines",3,12,"John Van Ess","Coordinator/Department Head","3720 E 29th St","","Des Moines","50317-4230",5152665065,5152637035,"John.vaness@sterlinged.org","POINT (-93.56120200000001 41.628854)","50317","(-93.56120200000001 41.628854)",TRUE,"High",c(-93.561202, 41.628854)
"54",77,"Polk",11,NA,1737,"",NA,8120,"Sterling West - Des Moines",3,12,"John Van Ess","Coordinator/Department Head","3720 E 29th St","","Des Moines","50317-4230",5152665065,5152637035,"John.vaness@sterlinged.org","POINT (-93.56120200000001 41.628854)","50317","(-93.56120200000001 41.628854)",TRUE,"Middle",c(-93.561202, 41.628854)
"55",77,"Polk",11,NA,6579,"",NA,8112,"St Pius X School",0,8,"Mary Jo Kever","Principal","3601 66th St","","Urbandale","50322-3499",5152761061,5152760350,"mkever@stpiusxschool.org","POINT (-93.70737600000001 41.628647)","50322","(-93.70737600000001 41.628647)",TRUE,"Elementary",c(-93.707376, 41.628647)
"56",77,"Polk",11,NA,6579,"",NA,8112,"St Pius X School",0,8,"Mary Jo Kever","Principal","3601 66th St","","Urbandale","50322-3499",5152761061,5152760350,"mkever@stpiusxschool.org","POINT (-93.70737600000001 41.628647)","50322","(-93.70737600000001 41.628647)",TRUE,"Middle",c(-93.707376, 41.628647)
"57",17,"Cerro Gordo",7,NA,4131,"",NA,8401,"North Iowa Christian School",0,12,"Janna Voss","Principal","680 6th St. SE","","Mason City","50401",6414236440,6414236440,"janna.voss@icloud.com","POINT (-93.187852 43.146193)","50401","(-93.187852 43.146193)",TRUE,"Elementary",c(-93.187852, 43.146193)
"58",17,"Cerro Gordo",7,NA,4131,"",NA,8401,"North Iowa Christian School",0,12,"Janna Voss","Principal","680 6th St. SE","","Mason City","50401",6414236440,6414236440,"janna.voss@icloud.com","POINT (-93.187852 43.146193)","50401","(-93.187852 43.146193)",TRUE,"High",c(-93.187852, 43.146193)
"59",17,"Cerro Gordo",7,NA,4131,"",NA,8401,"North Iowa Christian School",0,12,"Janna Voss","Principal","680 6th St. SE","","Mason City","50401",6414236440,6414236440,"janna.voss@icloud.com","POINT (-93.187852 43.146193)","50401","(-93.187852 43.146193)",TRUE,"Middle",c(-93.187852, 43.146193)
"60",50,"Jasper",11,1920610,4725,"Newton  Comm School District",192061002127,408,"Aurora Heights Elementary School",0,4,"Jim Gilbert","Principal","310 E 23rd St S","","Newton","50208",6417927324,6417927701,"gilbertj@newton.k12.ia.us","POINT (-93.024438 41.69578)","50208","(-93.024438 41.69578)",TRUE,"Elementary",c(-93.024438, 41.69578)
"61",51,"Jefferson",15,1911340,2169,"Fairfield  Comm School District",NA,487,"Pence Elementary",2,4,"Mr. Chuck Benge","Principal","1000 South 6th Street","","Fairfield","52556-3940",6414722957,6414726506,"chuck.benge@fairfieldsfuture.org","POINT (-91.970446 40.998036)","52556","(-91.970446 40.998036)",TRUE,"Elementary",c(-91.970446, 40.998036)
"62",57,"Linn",10,1906540,1053,"Cedar Rapids  Comm School District",190654000256,569,"Pierce Elementary School",0,5,"Kathleen Ziegler","Principal","4343 Marilyn Dr NE","","Cedar Rapids","52402",3195582373,3193780699,"KZiegler@cr.k12.ia.us","POINT (-91.675791 42.022844)","52402","(-91.675791 42.022844)",TRUE,"Elementary",c(-91.675791, 42.022844)
"63",51,"Jefferson",15,1911340,2169,"Fairfield  Comm School District",NA,486,"Washington Elementary",0,1,"Mr. Jeff Eeling","Principal","406 East Madison Avenue","","Fairfield","52556-3645",6414722110,6414695774,"jeff.eeling@fairfieldsfuture.org","POINT (-91.95837600000002 41.002989)","52556","(-91.95837600000002 41.002989)",TRUE,"Elementary",c(-91.958376, 41.002989)
"64",57,"Linn",10,1906540,1053,"Cedar Rapids  Comm School District",190654000255,558,"Nixon Elementary School",0,5,"Dee Ann Crozier","Principal","200 Nixon Dr","","Hiawatha","52233",3195582188,3192949242,"DCrozier@cr.k12.ia.us","POINT (-91.668234 42.044207)","52233","(-91.668234 42.044207)",TRUE,"Elementary",c(-91.668234, 42.044207)
"65",57,"Linn",10,1906540,1053,"Cedar Rapids  Comm School District",190654001490,610,"Grant Elementary School",0,5,"Monica Frey","Principal","254 Outlook Dr SW","","Cedar Rapids","52404",3195582020,3193982022,"mfrey@cr.k12.ia.us","POINT (-91.666068 41.950253000000004)","52404","(-91.666068 41.950253000000004)",TRUE,"Elementary",c(-91.666068, 41.950253)
"66",10,"Buchanan",7,1915330,3204,"Jesup  Comm School District",191533002017,434,"Triumph Elementary School",0,8,"Brian Pottebaum","Principal","531 Prospect","PO Box 287","Jesup","50648-0287",3198271700,3198273905,"bpottebaum@jesup.k12.ia.us","POINT (-92.015742 42.57631)","50648","(-92.015742 42.57631)",TRUE,"Elementary",c(-92.015742, 42.57631)
"67",10,"Buchanan",7,1915330,3204,"Jesup  Comm School District",191533002017,434,"Triumph Elementary School",0,8,"Brian Pottebaum","Principal","531 Prospect","PO Box 287","Jesup","50648-0287",3198271700,3198273905,"bpottebaum@jesup.k12.ia.us","POINT (-92.015742 42.57631)","50648","(-92.015742 42.57631)",TRUE,"Middle",c(-92.015742, 42.57631)
"68",7,"Black Hawk",7,1930480,6795,"Waterloo  Comm School District",193048001970,554,"Highland Elementary School",0,5,"Matthew Willand","Principal","812 Idaho St","","Waterloo","50703",3194332630,3194332633,"willandm@waterlooschools.org","POINT (-92.307839 42.496574)","50703","(-92.307839 42.496574)",TRUE,"Elementary",c(-92.307839, 42.496574)
"69",11,"Buena Vista",5,1927390,6219,"Storm Lake  Comm School District",192739000847,120,"St Lake/IA Cntrl/Buena Vista Early College HS",9,12,"Beau Ruleaux","Principal","621 Tornado Dr","","Storm Lake","50588",7127328065,7127328068,"bruleaux@slcsd.org","POINT (-95.195155 42.647886)","50588","(-95.195155 42.647886)",TRUE,"High",c(-95.195155, 42.647886)
"70",56,"Lee",15,NA,2322,"",NA,8602,"Holy Trinity Elem",0,6,"Michael Sheerin","Principal","413 Ave C","","West Point","52627-0039",3198376131,3198378112,"michael.sheerin@holytrinityschools.org","POINT (-91.453666 40.715214)","52627","(-91.453666 40.715214)",TRUE,"Elementary",c(-91.453666, 40.715214)
"71",31,"Dubuque",1,NA,6961,"",NA,8153,"Seton Catholic Elem Sch Farley Center",6,8,"Mary Smock","Principal","210 2nd Ave SE","PO Box 249","Farley","52046-0249",5637443290,5637443450,"DBQE28@arch.pvt.k12.ia.us","POINT (-91.004814 42.441847)","52046","(-91.004814 42.441847)",TRUE,"Middle",c(-91.004814, 42.441847)
"72",23,"Clinton",9,1907710,1278,"Clinton  Comm School District",190771000384,516,"Whittier Elementary School",0,5,"Brian Kenney","Principal","1310 2nd Ave S","","Clinton","52732",5632433230,5632430461,"brkenney@clintonia.org","POINT (-90.25054 41.844528)","52732","(-90.25054 41.844528)",TRUE,"Elementary",c(-90.25054, 41.844528)
"73",50,"Jasper",11,1920610,4725,"Newton  Comm School District",192061002119,467,"Woodrow Wilson Elementary School",0,4,"Todd Schuster","Principal","801 S 8th Ave West","","Newton","50208",6417927311,6417920186,"schustert@newton.k12.ia.us","POINT (-93.06222900000002 41.692838)","50208","(-93.06222900000002 41.692838)",TRUE,"Elementary",c(-93.062229, 41.692838)
"74",57,"Linn",10,NA,1053,"",NA,8220,"Isaac Newton Christian Academy",0,9,"Dean Ridder","Principal","1635 Linmar Drive NE","","Cedar Rapids","52402",3193629512,3193625610,"dridder@incaonline.org","POINT (-91.671671 42.005831)","52402","(-91.671671 42.005831)",TRUE,"Elementary",c(-91.671671, 42.005831)
"75",57,"Linn",10,NA,1053,"",NA,8220,"Isaac Newton Christian Academy",0,9,"Dean Ridder","Principal","1635 Linmar Drive NE","","Cedar Rapids","52402",3193629512,3193625610,"dridder@incaonline.org","POINT (-91.671671 42.005831)","52402","(-91.671671 42.005831)",TRUE,"Middle",c(-91.671671, 42.005831)
"76",7,"Black Hawk",7,1930480,6795,"Waterloo  Comm School District",193048001165,550,"Lou Henry Elementary School",0,5,"Jacob Young-Kent","Principal","312 Rachael St","","Waterloo","50701",3194332860,3194333040,"youngkentj2@waterlooschools.org","POINT (-92.36255 42.462662)","50701","(-92.36255 42.462662)",TRUE,"Elementary",c(-92.36255, 42.462662)
"77",57,"Linn",10,1906540,1053,"Cedar Rapids  Comm School District",190654000235,433,"Coolidge Elementary School",0,5,"Greg O'Connell","Principal","6225 1st Av SW","","Cedar Rapids","52405",3195582167,3193900470,"goconnell@cr.k12.ia.us","POINT (-91.752443 41.971291)","52405","(-91.752443 41.971291)",TRUE,"Elementary",c(-91.752443, 41.971291)
"78",14,"Carroll",11,NA,999,"",NA,8002,"Kuemper Catholic School System",0,12,"John Steffes","Other Administrator","116 South East St.","","Carroll","51401",7127923313,7127928073,"jjsteffes@kuemper.org","POINT (-94.86538900000001 42.059272)","51401","(-94.86538900000001 42.059272)",TRUE,"Elementary",c(-94.865389, 42.059272)
"79",14,"Carroll",11,NA,999,"",NA,8002,"Kuemper Catholic School System",0,12,"John Steffes","Other Administrator","116 South East St.","","Carroll","51401",7127923313,7127928073,"jjsteffes@kuemper.org","POINT (-94.86538900000001 42.059272)","51401","(-94.86538900000001 42.059272)",TRUE,"High",c(-94.865389, 42.059272)
"80",14,"Carroll",11,NA,999,"",NA,8002,"Kuemper Catholic School System",0,12,"John Steffes","Other Administrator","116 South East St.","","Carroll","51401",7127923313,7127928073,"jjsteffes@kuemper.org","POINT (-94.86538900000001 42.059272)","51401","(-94.86538900000001 42.059272)",TRUE,"Middle",c(-94.865389, 42.059272)
"81",31,"Dubuque",1,NA,6961,"",NA,8146,"Beckman Catholic HS Beckman Catholic HS",7,12,"Pat Meade","Principal","1325 9th St SE","","Dyersville","52040",5638757188,5638757242,"pmeade@beckman.pvt.k12.ia.us","POINT (-91.114275 42.472699000000006)","52040","(-91.114275 42.472699000000006)",TRUE,"High",c(-91.114275, 42.472699)
"82",31,"Dubuque",1,NA,6961,"",NA,8146,"Beckman Catholic HS Beckman Catholic HS",7,12,"Pat Meade","Principal","1325 9th St SE","","Dyersville","52040",5638757188,5638757242,"pmeade@beckman.pvt.k12.ia.us","POINT (-91.114275 42.472699000000006)","52040","(-91.114275 42.472699000000006)",TRUE,"Middle",c(-91.114275, 42.472699)
"83",26,"Davis",15,1908610,1619,"Davis County  Comm School District",190861000493,428,"Davis County Middle School",5,8,"Bradley McCloskey","Principal","500 E North St","","Bloomfield","52537",6416642200,6416641767,"Brad.McCloskey@dcmustangs.com","POINT (-92.408777 40.754657)","52537","(-92.408777 40.754657)",TRUE,"Middle",c(-92.408777, 40.754657)
"84",59,"Lucas",15,1907050,1107,"Chariton  Comm School District",190705000317,439,"Van Allen Elementary School",3,5,"Joshua Morgan","Principal","1129 Ashland","","Chariton","50049",6417745047,6417745717,"josh.morgan@chariton.k12.ia.us","POINT (-93.310785 41.023029)","50049","(-93.310785 41.023029)",TRUE,"Elementary",c(-93.310785, 41.023029)
"85",31,"Dubuque",1,NA,1863,"",NA,8006,"Holy Family System (Dubuque)",0,12,"Carol Trueg","Other Administrator","2005 Kane St","","Dubuque","52001",5635825456,5635833885,"dbqmd01@arch.pvt.k12.ia.us","POINT (-90.70623 42.517509)","52001","(-90.70623 42.517509)",TRUE,"Elementary",c(-90.70623, 42.517509)
"86",31,"Dubuque",1,NA,1863,"",NA,8006,"Holy Family System (Dubuque)",0,12,"Carol Trueg","Other Administrator","2005 Kane St","","Dubuque","52001",5635825456,5635833885,"dbqmd01@arch.pvt.k12.ia.us","POINT (-90.70623 42.517509)","52001","(-90.70623 42.517509)",TRUE,"High",c(-90.70623, 42.517509)
"87",31,"Dubuque",1,NA,1863,"",NA,8006,"Holy Family System (Dubuque)",0,12,"Carol Trueg","Other Administrator","2005 Kane St","","Dubuque","52001",5635825456,5635833885,"dbqmd01@arch.pvt.k12.ia.us","POINT (-90.70623 42.517509)","52001","(-90.70623 42.517509)",TRUE,"Middle",c(-90.70623, 42.517509)
"88",31,"Dubuque",1,1909480,1863,"Dubuque  Comm School District",190948000976,225,"Eleanor Roosevelt Middle School",6,8,"Jeffrey Johll","Principal","2001 Radford Rd","","Dubuque","52002",5635525000,5635525001,"jjohll@dbqschools.org","POINT (-90.752385 42.504911)","52002","(-90.752385 42.504911)",TRUE,"Middle",c(-90.752385, 42.504911)
"89",57,"Linn",10,NA,1053,"",NA,8214,"Trinity Lutheran School",0,8,"Mark Mueller","Principal","1361 7th Ave SW","","Cedar Rapids","52404-1831",3193626952,8776877670,"muellerm@trinitycr.org","POINT (-91.689919 41.969857)","52404","(-91.689919 41.969857)",TRUE,"Elementary",c(-91.689919, 41.969857)
"90",57,"Linn",10,NA,1053,"",NA,8214,"Trinity Lutheran School",0,8,"Mark Mueller","Principal","1361 7th Ave SW","","Cedar Rapids","52404-1831",3193626952,8776877670,"muellerm@trinitycr.org","POINT (-91.689919 41.969857)","52404","(-91.689919 41.969857)",TRUE,"Middle",c(-91.689919, 41.969857)
"91",52,"Johnson",10,1914700,3141,"Iowa City  Comm School District",191470000436,493,"Wickham Elementary",0,6,"Amber Daubs","Principal","601 Oakdale Blvd","","Coralville","52241",3196881175,3196881176,"daubs.amber@iowacityschools.org","POINT (-91.575666 41.705263)","52241","(-91.575666 41.705263)",TRUE,"Elementary",c(-91.575666, 41.705263)
"92",57,"Linn",10,1906540,1053,"Cedar Rapids  Comm School District",190654000731,636,"Viola Gibson Elementary  School",0,5,"Shannon Kehoe","Principal","6101 Gibson Dr NE","","Cedar Rapids","52411",3195582920,3193930412,"skehoe@cr.k12.ia.us","POINT (-91.713228 42.03933)","52411","(-91.713228 42.03933)",TRUE,"Elementary",c(-91.713228, 42.03933)
"93",57,"Linn",10,1906540,1053,"Cedar Rapids  Comm School District",190654000261,232,"Taft Middle School",6,8,"Gary Hatfield","Principal","5200 E Av NW","","Cedar Rapids","52405",3195582243,3196548619,"ghatfield@cr.k12.ia.us","POINT (-91.738942 41.978461)","52405","(-91.738942 41.978461)",TRUE,"Middle",c(-91.738942, 41.978461)
"94",73,"Page",13,NA,1197,"",NA,8202,"Clarinda Lutheran School Association",0,8,"Merrilee Anne Sump","Principal","707 W Scidmore","","Clarinda","51632",7125423657,7125423657,"msump@cls.k12.ia.us","POINT (-95.04505000000002 40.74595)","51632","(-95.04505000000002 40.74595)",TRUE,"Elementary",c(-95.04505, 40.74595)
"95",73,"Page",13,NA,1197,"",NA,8202,"Clarinda Lutheran School Association",0,8,"Merrilee Anne Sump","Principal","707 W Scidmore","","Clarinda","51632",7125423657,7125423657,"msump@cls.k12.ia.us","POINT (-95.04505000000002 40.74595)","51632","(-95.04505000000002 40.74595)",TRUE,"Middle",c(-95.04505, 40.74595)
"96",7,"Black Hawk",7,NA,6795,"",NA,8007,"Cedar Valley Catholic School System",0,12,"Dale Monroe","Superintendent","3231 W 9th St","NULL","Waterloo","50702",3192321422,3192323977,"DBQMW01@dbqarch.org","POINT (-92.344315 42.464995)","50702","(-92.344315 42.464995)",TRUE,"Elementary",c(-92.344315, 42.464995)
"97",7,"Black Hawk",7,NA,6795,"",NA,8007,"Cedar Valley Catholic School System",0,12,"Dale Monroe","Superintendent","3231 W 9th St","NULL","Waterloo","50702",3192321422,3192323977,"DBQMW01@dbqarch.org","POINT (-92.344315 42.464995)","50702","(-92.344315 42.464995)",TRUE,"High",c(-92.344315, 42.464995)
"98",7,"Black Hawk",7,NA,6795,"",NA,8007,"Cedar Valley Catholic School System",0,12,"Dale Monroe","Superintendent","3231 W 9th St","NULL","Waterloo","50702",3192321422,3192323977,"DBQMW01@dbqarch.org","POINT (-92.344315 42.464995)","50702","(-92.344315 42.464995)",TRUE,"Middle",c(-92.344315, 42.464995)
"99",52,"Johnson",10,1914700,3141,"Iowa City  Comm School District",191470002133,401,"Buford Garner Elementary",0,6,"Nick Proud","Principal","80 Birch Street","","North Liberty","52317",3196881190,NA,"proud.nick@iowacityschools.org","POINT (-91.599668 41.74173100000001)","52317","(-91.599668 41.74173100000001)",TRUE,"Elementary",c(-91.599668, 41.741731)
"100",31,"Dubuque",1,NA,6961,"",NA,8157,"Seton Catholic Elem Sch Peosta Center",0,5,"Mary Smock","Principal","7597 Burds Road","","Peosta","52068",5635565967,5635567579,"DBQE28@arch.pvt.k12.ia.us","POINT (-90.831933 42.448893)","52068","(-90.831933 42.448893)",TRUE,"Elementary",c(-90.831933, 42.448893)
"101",52,"Johnson",10,1914700,3141,"Iowa City  Comm School District",191470000304,488,"Weber Elementary",0,6,"Yaa Appiah-McNulty","Principal","3850 Rohret Road","","Iowa City","52246",3196881170,3196881171,"appiah-mcnulty.yaa@iowacityschools.org","POINT (-91.596479 41.644184)","52246","(-91.596479 41.644184)",TRUE,"Elementary",c(-91.596479, 41.644184)
"102",70,"Muscatine",9,1920130,4581,"Muscatine  Comm School District",192013001183,402,"Colorado Elementary School",0,5,"Gretchen Price","Principal","149 Colorado St","","Muscatine","52761",5632634998,5632630273,"gretchen.price@mcsdonline.org","POINT (-91.027646 41.442585)","52761","(-91.027646 41.442585)",TRUE,"Elementary",c(-91.027646, 41.442585)
"103",35,"Franklin",7,NA,916,"",NA,8201,"St Pauls Lutheran School",0,9,"Steve Lane","Principal","404 W. Main St","Box 609","Latimer","50452",6415796046,6415796285,"leadteacher@stpaulslatimer.org","POINT (-93.369911 42.733638)","50452","(-93.369911 42.733638)",TRUE,"Elementary",c(-93.369911, 42.733638)
"104",35,"Franklin",7,NA,916,"",NA,8201,"St Pauls Lutheran School",0,9,"Steve Lane","Principal","404 W. Main St","Box 609","Latimer","50452",6415796046,6415796285,"leadteacher@stpaulslatimer.org","POINT (-93.369911 42.733638)","50452","(-93.369911 42.733638)",TRUE,"Middle",c(-93.369911, 42.733638)
"105",31,"Dubuque",1,NA,1863,"",NA,8127,"Holy Ghost School",0,5,"Todd Wessels","Principal","2981 Central Ave","","Dubuque","52001-1953",5635561511,5635564768,"twessels@holyfamilydbq.org","POINT (-90.680781 42.525205)","52001","(-90.680781 42.525205)",TRUE,"Elementary",c(-90.680781, 42.525205)
"106",6,"Benton",10,NA,609,"",NA,8204,"Central Lutheran School",0,8,"Nichole Perez","Principal","310 3rd St W","PO Box 190","Newhall","52315-0190",3192235271,3192235257,"principal@centrallutheranschool.org","POINT (-91.973833 41.992518)","52315","(-91.973833 41.992518)",TRUE,"Elementary",c(-91.973833, 41.992518)
"107",6,"Benton",10,NA,609,"",NA,8204,"Central Lutheran School",0,8,"Nichole Perez","Principal","310 3rd St W","PO Box 190","Newhall","52315-0190",3192235271,3192235257,"principal@centrallutheranschool.org","POINT (-91.973833 41.992518)","52315","(-91.973833 41.992518)",TRUE,"Middle",c(-91.973833, 41.992518)
"108",7,"Black Hawk",7,1930480,6795,"Waterloo  Comm School District",193048001723,215,"Hoover Middle School",6,8,"Michael Fisher","Principal","630 Hillcrest Rd","","Waterloo","50701",3194332830,3194332843,"fisherm2@waterlooschools.org","POINT (-92.361974 42.465594)","50701","(-92.361974 42.465594)",TRUE,"Middle",c(-92.361974, 42.465594)
"109",70,"Muscatine",9,1920130,4581,"Muscatine  Comm School District",192013001192,461,"Mulberry Elementary School",0,5,"Mary Beilke","Principal","3211 Mulberry Ave","NULL","Muscatine","52761",5632638143,5632638487,"mary.beilke@mcsdonline.org","POINT (-91.07506 41.444433)","52761","(-91.07506 41.444433)",TRUE,"Elementary",c(-91.07506, 41.444433)
"110",31,"Dubuque",1,NA,1863,"",NA,8160,"Dubuque Lutheran School",0,5,"Kevin E. Kuske","Other Administrator","2145 John F. Kennedy Rd","","Dubuque","52002",5635880614,5635883475,"principal@dubuquelutheranschool.com","POINT (-90.720467 42.509244)","52002","(-90.720467 42.509244)",TRUE,"Elementary",c(-90.720467, 42.509244)
"111",7,"Black Hawk",7,NA,1044,"",NA,8113,"St Patrick School",0,8,"Bev Mach","Principal","615 Washington St","","Cedar Falls","50613",3192776781,3192665806,"bmach@cfcatholicschool.org","POINT (-92.446831 42.532655)","50613","(-92.446831 42.532655)",TRUE,"Elementary",c(-92.446831, 42.532655)
"112",7,"Black Hawk",7,NA,1044,"",NA,8113,"St Patrick School",0,8,"Bev Mach","Principal","615 Washington St","","Cedar Falls","50613",3192776781,3192665806,"bmach@cfcatholicschool.org","POINT (-92.446831 42.532655)","50613","(-92.446831 42.532655)",TRUE,"Middle",c(-92.446831, 42.532655)
"113",9,"Bremer",7,1908940,1719,"Denver  Comm School District",190894000831,309,"K-5 Elementary School Lincoln Street Building",0,5,"Chris Ward","Principal","530 Lincoln St","P. O. Box 384","Denver","50622",3199845611,3199845630,"cward@denver.k12.ia.us","POINT (-92.330525 42.668666)","50622","(-92.330525 42.668666)",TRUE,"Elementary",c(-92.330525, 42.668666)
"114",7,"Black Hawk",7,NA,6795,"",NA,8008,"The Bosco System",0,12,"Rick Blackwell","Principal","405 16th Ave","PO Box 106","Gilbertville","50634",3192961692,3192961693,"rblackwell@boscosystem.pvt.k12.ia.us","POINT (-92.215588 42.417619)","50634","(-92.215588 42.417619)",TRUE,"Elementary",c(-92.215588, 42.417619)
"115",7,"Black Hawk",7,NA,6795,"",NA,8008,"The Bosco System",0,12,"Rick Blackwell","Principal","405 16th Ave","PO Box 106","Gilbertville","50634",3192961692,3192961693,"rblackwell@boscosystem.pvt.k12.ia.us","POINT (-92.215588 42.417619)","50634","(-92.215588 42.417619)",TRUE,"High",c(-92.215588, 42.417619)
"116",7,"Black Hawk",7,NA,6795,"",NA,8008,"The Bosco System",0,12,"Rick Blackwell","Principal","405 16th Ave","PO Box 106","Gilbertville","50634",3192961692,3192961693,"rblackwell@boscosystem.pvt.k12.ia.us","POINT (-92.215588 42.417619)","50634","(-92.215588 42.417619)",TRUE,"Middle",c(-92.215588, 42.417619)
"117",31,"Dubuque",1,NA,6961,"",NA,8150,"Aquin Elementary School",0,8,"Vicki Palmer","Principal","608 3rd Ave NW","Box 460","Cascade","52033",5638523331,5638525269,"DBQE06@arch.pvt.k12.ia.us","POINT (-91.019908 42.299037)","52033","(-91.019908 42.299037)",TRUE,"Elementary",c(-91.019908, 42.299037)
"118",31,"Dubuque",1,NA,6961,"",NA,8150,"Aquin Elementary School",0,8,"Vicki Palmer","Principal","608 3rd Ave NW","Box 460","Cascade","52033",5638523331,5638525269,"DBQE06@arch.pvt.k12.ia.us","POINT (-91.019908 42.299037)","52033","(-91.019908 42.299037)",TRUE,"Middle",c(-91.019908, 42.299037)
"119",31,"Dubuque",1,1909480,1863,"Dubuque  Comm School District",190948000617,522,"Sageville Elementary School",0,5,"Jean McDonald","Principal","12015 Sherrill Rd","","Dubuque","52002",5635524300,5635524301,"jmcdonald@dbqschools.org","POINT (-90.721447 42.568195)","52002","(-90.721447 42.568195)",TRUE,"Elementary",c(-90.721447, 42.568195)
"120",77,"Polk",11,1908970,1737,"Des Moines Independent  Comm School District",190897000543,114,"Hoover High School",9,12,"Kathie Danielson","Principal","4800 Aurora Ave","","Des Moines","50310",5152427300,5152427308,"kathie.danielson@dmschools.org","POINT (-93.682962 41.636719)","50310","(-93.682962 41.636719)",TRUE,"High",c(-93.682962, 41.636719)
"121",57,"Linn",10,1906540,1053,"Cedar Rapids  Comm School District",190654000266,608,"Van Buren Elementary School",0,5,"Kent Ryan","Principal","2525 29th St SW","","Cedar Rapids","52404",3195582377,3196548647,"kryan@cr.k12.ia.us","POINT (-91.710603 41.953231)","52404","(-91.710603 41.953231)",TRUE,"Elementary",c(-91.710603, 41.953231)
"122",52,"Johnson",10,1914700,3141,"Iowa City  Comm School District",191470000897,213,"Northwest Junior High School",7,8,"Laura Cottrell","Principal","1507 8th St","","Coralville","52241",3196881060,3196881069,"cottrell.laura@iowacityschools.org","POINT (-91.585515 41.681809)","52241","(-91.585515 41.681809)",TRUE,"Middle",c(-91.585515, 41.681809)
"123",7,"Black Hawk",7,1930480,6795,"Waterloo  Comm School District",193048001734,565,"Orange Elementary School",0,5,"Sunni Hart","Principal","5805 Kimball Ave","","Waterloo","50701",3194332880,3194332888,"harts@waterlooschools.org","POINT (-92.356899 42.431267)","50701","(-92.356899 42.431267)",TRUE,"Elementary",c(-92.356899, 42.431267)
"124",31,"Dubuque",1,NA,6961,"",NA,8001,"Archbishop Hennessy Catholic Elem Schools",0,6,"Steven Cornelius","Superintendent","1623 300th Avenue","","Dyersville","52040",5638757572,5638756140,"dbqe33@arch.pvt.k12.ia.us","POINT (-91.213305 42.55547)","52040","(-91.213305 42.55547)",TRUE,"Elementary",c(-91.213305, 42.55547)
"125",31,"Dubuque",1,NA,6961,"",NA,8148,"La Salle Catholic School",0,6,"Susan Hucker","Principal","NULL","Box 368","Holy Cross","52053",5638702405,5638704101,"dbqe34@arch.pvt.k12.ia.us","POINT (-90.997131 42.59977)","52053","(-90.997131 42.59977)",TRUE,"Elementary",c(-90.997131, 42.59977)
"126",7,"Black Hawk",7,1930480,6795,"Waterloo  Comm School District",193048000586,200,"Bunger Middle School",6,8,"Rachel Savage","Principal","157 S Roosevelt Rd","","Evansdale","50707",3194332550,3194332564,"savager@waterlooschools.org","POINT (-92.275501 42.470812)","50707","(-92.275501 42.470812)",TRUE,"Middle",c(-92.275501, 42.470812)
"127",25,"Dallas",11,1930510,6822,"Waukee  Comm School District",193051002190,442,"Woodland Hills",0,5,"Scott Shumaker","Principal","","1120 South 95th Street","West Des Moines","50266",5159875196,5159877560,"sshumaker@waukeeschools.org","POINT (-93.842119 41.549797)","50266","(-93.842119 41.549797)",TRUE,"Elementary",c(-93.842119, 41.549797)
"128",94,"Webster",5,NA,2313,"",NA,8206,"St Paul Lutheran School",0,8,"Julie Mann","Principal","1217 4th Ave S","","Fort Dodge","50501",5159557208,5155737839,"julie.mann@stpaulschoolfd.org","POINT (-94.181664 42.502066)","50501","(-94.181664 42.502066)",TRUE,"Elementary",c(-94.181664, 42.502066)
"129",94,"Webster",5,NA,2313,"",NA,8206,"St Paul Lutheran School",0,8,"Julie Mann","Principal","1217 4th Ave S","","Fort Dodge","50501",5159557208,5155737839,"julie.mann@stpaulschoolfd.org","POINT (-94.181664 42.502066)","50501","(-94.181664 42.502066)",TRUE,"Middle",c(-94.181664, 42.502066)
"130",64,"Marshall",7,1918720,4104,"Marshalltown  Comm School District",191872001095,491,"Woodbury Elementary School",0,4,"Anel Garza","Principal","8 N 7th Ave","","Marshalltown","50158",6417541080,6417541083,"agarza@marshalltown.k12.ia.us","POINT (-92.901555 42.049789)","50158","(-92.901555 42.049789)",TRUE,"Elementary",c(-92.901555, 42.049789)
"131",31,"Dubuque",1,1909480,1863,"Dubuque  Comm School District",190948000613,494,"John Kennedy Elementary School",0,5,"Donna Loewen","Principal","2135 Woodland","","Dubuque","52002",5635523900,5635523901,"dloewen@dbqschools.org","POINT (-90.72212300000001 42.509111)","52002","(-90.72212300000001 42.509111)",TRUE,"Elementary",c(-90.722123, 42.509111)
"132",57,"Linn",10,1907860,1337,"College  Comm School District",190786000104,951,"Prairie Edge",0,12,"Ivan Gentry","Principal","401 76th Ave SW","NULL","Cedar Rapids","52404",3192983406,NA,"igentry@crprairie.org","POINT (-91.666611 41.905046)","52404","(-91.666611 41.905046)",TRUE,"Elementary",c(-91.666611, 41.905046)
"133",57,"Linn",10,1907860,1337,"College  Comm School District",190786000104,951,"Prairie Edge",0,12,"Ivan Gentry","Principal","401 76th Ave SW","NULL","Cedar Rapids","52404",3192983406,NA,"igentry@crprairie.org","POINT (-91.666611 41.905046)","52404","(-91.666611 41.905046)",TRUE,"High",c(-91.666611, 41.905046)
"134",57,"Linn",10,1907860,1337,"College  Comm School District",190786000104,951,"Prairie Edge",0,12,"Ivan Gentry","Principal","401 76th Ave SW","NULL","Cedar Rapids","52404",3192983406,NA,"igentry@crprairie.org","POINT (-91.666611 41.905046)","52404","(-91.666611 41.905046)",TRUE,"Middle",c(-91.666611, 41.905046)
"135",31,"Dubuque",1,NA,1863,"",NA,8136,"Resurrection School",0,5,"Denise Grant","Principal","4300 Asbury Rd","","Dubuque","52002-0498",5635839488,5635577995,"dgrant@holyfamilydbq.org","POINT (-90.73627 42.515282)","52002","(-90.73627 42.515282)",TRUE,"Elementary",c(-90.73627, 42.515282)
"136",31,"Dubuque",1,NA,1863,"",NA,8122,"St Columbkille School",0,5,"Barb Roling","Principal","1198 Rush St","","Dubuque","52003",5635823532,5635834884,"broling@holyfamilydbq.org","POINT (-90.674942 42.486668)","52003","(-90.674942 42.486668)",TRUE,"Elementary",c(-90.674942, 42.486668)
"137",48,"Iowa",1,NA,1863,"",NA,8134,"Wahlert Catholic High School",9,12,"Ron Meyers","Principal","2005 Kane St","","Dubuque","52001-0599",5635839771,5635839775,"rmeyers@holyfamilydbq.org","POINT (-90.706196 42.517514)","52001","(-90.706196 42.517514)",TRUE,"High",c(-90.706196, 42.517514)
"138",77,"Polk",11,1908970,1737,"Des Moines Independent  Comm School District",190897000546,598,"Hubbell Elementary",0,5,"Carrie Belt","Principal","800 42nd St","","Des Moines","50312",5152428414,5152428290,"carrie.belt@dmschools.org","POINT (-93.67440100000002 41.592094)","50312","(-93.67440100000002 41.592094)",TRUE,"Elementary",c(-93.674401, 41.592094)
"139",25,"Dallas",11,1930510,6822,"Waukee  Comm School District",193051000299,421,"Eason Elementary",0,5,"Clint Prohaska","Principal","605 SE Boone Dr","","Waukee","50263",5159875200,5159872707,"cprohaska@waukeeschools.org","POINT (-93.83356 41.60617)","50263","(-93.83356 41.60617)",TRUE,"Elementary",c(-93.83356, 41.60617)
"140",52,"Johnson",10,1914700,3141,"Iowa City  Comm School District",191470000883,403,"Central Elementary School",0,6,"Andy Gahan","Principal","501 6th St","","Coralville","52241",3196881100,3196881101,"gahan.andy@iowacityschools.org","POINT (-91.571292 41.676337)","52241","(-91.571292 41.676337)",TRUE,"Elementary",c(-91.571292, 41.676337)
"141",77,"Polk",11,1908970,1737,"Des Moines Independent  Comm School District",190897002140,923,"Woodlawn Early Childhood Center",0,0,"Angela Constable","Supervisor","4000 Lower Beaver Rd","","Des Moines","50310",5152428213,NA,"angela.constable@dmschools.org","POINT (-93.664703 41.634025)","50310","(-93.664703 41.634025)",TRUE,"Elementary",c(-93.664703, 41.634025)
"142",71,"O'Brien",12,1900026,6099,"South O'Brien   Comm School District",190002600618,424,"South O'Brien Elem Sch Primghar Center",0,6,"Michael Morran","Principal","155 3rd St NE","PO Box P","Primghar","51245",7129573755,7129570205,"mmorran@soswolverines.org","POINT (-95.627524 43.089067)","51245","(-95.627524 43.089067)",TRUE,"Elementary",c(-95.627524, 43.089067)
"143",25,"Dallas",11,1932010,7110,"Woodward-Granger  Comm School District",193201001867,418,"Woodward-Granger Elementary School",2,5,"Matt Brummond","Principal","2002 Oak Street","","Granger","50109",5159992357,NA,"mattbrummond@wghawks.school","POINT (-93.81796 41.762279)","50109","(-93.81796 41.762279)",TRUE,"Elementary",c(-93.81796, 41.762279)
"144",29,"Des Moines",15,1905790,882,"Burlington  Comm School District",190579000186,208,"Edward Stone Middle School",6,8,"Angela Butler","Principal","3000 Mason Rd.","","Burlington","52601",3197524393,3197527437,"angela.butler@bcsds.org","POINT (-91.137895 40.795359000000005)","52601","(-91.137895 40.795359000000005)",TRUE,"Middle",c(-91.137895, 40.795359)
"145",52,"Johnson",10,NA,4271,"",NA,8506,"Iowa Mennonite School",9,12,"Stephen Schrag","Principal","1421 540th St SW","","Kalona","52247-0913",3196562073,3196562073,"sschrag@iowamennonite.org","POINT (-91.788961 41.540813)","52247","(-91.788961 41.540813)",TRUE,"High",c(-91.788961, 41.540813)
"146",57,"Linn",10,1906540,1053,"Cedar Rapids  Comm School District",190654000244,214,"Harding Middle School",6,8,"Linda Reysack","Principal","4801 Golf St NE","","Cedar Rapids","52402",3195582254,3193780671,"lreysack@cr.k12.ia.us","POINT (-91.653297 42.025633)","52402","(-91.653297 42.025633)",TRUE,"Middle",c(-91.653297, 42.025633)
"147",9,"Bremer",7,NA,6840,"",NA,8207,"St Pauls Lutheran School",0,6,"Kris Meyer","Principal","301 1st St. NW","","Waverly","50677",3193521484,3193523999,"kris.meyer@stpaulswaverly.org","POINT (-92.472017 42.728074)","50677","(-92.472017 42.728074)",TRUE,"Elementary",c(-92.472017, 42.728074)
"148",75,"Plymouth",12,1916530,3600,"Le Mars  Comm School District",191653000987,449,"Kluckhohn Elementary School",0,5,"Scott Parry","Principal","940 Lincoln Street SW","","Le Mars","51031",7125467064,7125467069,"scott.parry@lemarscsd.org","POINT (-96.16641700000001 42.775928)","51031","(-96.16641700000001 42.775928)",TRUE,"Elementary",c(-96.166417, 42.775928)
"149",31,"Dubuque",1,NA,1863,"",NA,8126,"St Anthony School",0,5,"Lori Apel","Principal","2175 Rosedale","","Dubuque","52001-4198",5635562820,5635562131,"lapel@holyfamily.dbq.pvt.k12.ia.us","POINT (-90.696973 42.50393400000001)","52001","(-90.696973 42.50393400000001)",TRUE,"Elementary",c(-90.696973, 42.503934)
"150",31,"Dubuque",1,1909480,1863,"Dubuque  Comm School District",190948001456,520,"Prescott Elementary School",0,5,"Vicki Sullivan","Principal","1151 White St","","Dubuque","52001",5635524200,5635524201,"vsullivan@dbqschools.org","POINT (-90.665652 42.504593)","52001","(-90.665652 42.504593)",TRUE,"Elementary",c(-90.665652, 42.504593)
"151",18,"Cherokee",12,1904020,423,"Aurelia  Comm School District",190402000013,251,"Aurelia Middle School",6,8,"Jeannie Henningsen","Principal","300 Ash St","PO Box 367","Aurelia","51005",7124345595,7124342053,"jhenningsen@alta-aurelia.k12.ia.us","POINT (-95.429754 42.714287)","51005","(-95.429754 42.714287)",TRUE,"Middle",c(-95.429754, 42.714287)
"152",52,"Johnson",10,1914700,3141,"Iowa City  Comm School District",191470000893,406,"Kirkwood Elementary School",0,6,"Anita Gerling","Principal","1401 9th St","","Coralville","52241",3196881120,3196881121,"gerling.anita@iowacityschools.org","POINT (-91.584299 41.684289)","52241","(-91.584299 41.684289)",TRUE,"Elementary",c(-91.584299, 41.684289)
"153",10,"Buchanan",7,1915330,3204,"Jesup  Comm School District",191533002057,420,"Perry #1 Elementary School",0,8,"Brian Pottebaum","Principal","531 Prospect","PO Box 287","Jesup","50648-0287",3198271700,3198273905,"bpottebaum@jesup.k12.ia.us","POINT (-91.97942800000001 42.536518)","50648","(-91.97942800000001 42.536518)",TRUE,"Elementary",c(-91.979428, 42.536518)
"154",10,"Buchanan",7,1915330,3204,"Jesup  Comm School District",191533002057,420,"Perry #1 Elementary School",0,8,"Brian Pottebaum","Principal","531 Prospect","PO Box 287","Jesup","50648-0287",3198271700,3198273905,"bpottebaum@jesup.k12.ia.us","POINT (-91.97942800000001 42.536518)","50648","(-91.97942800000001 42.536518)",TRUE,"Middle",c(-91.979428, 42.536518)
"155",57,"Linn",10,1906540,1053,"Cedar Rapids  Comm School District",190654000213,627,"Jackson Elementary School",0,5,"Nick Duffy","Principal","1300 38th St NW","","Cedar Rapids","52405",3195582471,3193903865,"nduffy@cr.k12.ia.us","POINT (-91.721383 41.985209)","52405","(-91.721383 41.985209)",TRUE,"Elementary",c(-91.721383, 41.985209)
"156",77,"Polk",11,1908970,1737,"Des Moines Independent  Comm School District",190897000537,194,"Scavo Alternative High School",9,12,"Richard Blonigan","Principal","1800 Grand Ave","","Des Moines","50309",5152427589,5152427591,"richard.blonigan@dmschools.org","POINT (-93.641783 41.584446)","50309","(-93.641783 41.584446)",TRUE,"High",c(-93.641783, 41.584446)
"157",77,"Polk",11,1908970,1737,"Des Moines Independent  Comm School District",190897002108,688,"McKee Elementary School",0,0,"Susan Guest","Supervisor","2115 E 39th St","","Des Moines","50317",5153238628,NA,"susan.guest@dmschools.org","POINT (-93.53966700000001 41.613891)","50317","(-93.53966700000001 41.613891)",TRUE,"Elementary",c(-93.539667, 41.613891)
"158",52,"Johnson",10,1914700,3141,"Iowa City  Comm School District",191470001034,497,"James Van Allen Elementary School",0,6,"Eric Ewald","Principal","170 Abigail Ave","","North Liberty","52317",3196881185,3196881186,"ewald.eric@iowacityschools.org","POINT (-91.595104 41.726421)","52317","(-91.595104 41.726421)",TRUE,"Elementary",c(-91.595104, 41.726421)
"159",57,"Linn",10,NA,1053,"",NA,8200,"Summit Schools Inc",0,5,"Larisa Bickel","Other Administrator","1010 Regent St NE","","Cedar Rapids","52402",3192942036,3195380405,"larisa.bickel@summitschools.org","POINT (-91.648681 42.024254)","52402","(-91.648681 42.024254)",TRUE,"Elementary",c(-91.648681, 42.024254)
"160",60,"Lyon",12,NA,6983,"",NA,8303,"Inwood Christian School",0,8,"Arlyn Schaap","Principal","302 E. Madison","Drawer C","Inwood","51240",7127534541,7127532434,"inwoodchrofc@alliancecom.net","POINT (-96.428286 43.305169)","51240","(-96.428286 43.305169)",TRUE,"Elementary",c(-96.428286, 43.305169)
"161",60,"Lyon",12,NA,6983,"",NA,8303,"Inwood Christian School",0,8,"Arlyn Schaap","Principal","302 E. Madison","Drawer C","Inwood","51240",7127534541,7127532434,"inwoodchrofc@alliancecom.net","POINT (-96.428286 43.305169)","51240","(-96.428286 43.305169)",TRUE,"Middle",c(-96.428286, 43.305169)
"162",97,"Woodbury",12,1926400,6039,"Sioux City  Comm School District",192640001533,145,"West High School",9,12,"Scott Cole","Principal","2001 Casselman","","Sioux City","51103",7122796772,7122796790,"coles@live.siouxcityschools.com","POINT (-96.443962 42.511841)","51103","(-96.443962 42.511841)",TRUE,"High",c(-96.443962, 42.511841)
"163",38,"Grundy",7,NA,9,"",NA,8302,"Timothy Christian School",0,8,"Rebecca Johnson","Principal","18000 D Ave","PO Box 70","Wellsburg","50680",6418693679,6418693510,"rjohnson@timothychristianschool.net","POINT (-92.964284 42.433266)","50680","(-92.964284 42.433266)",TRUE,"Elementary",c(-92.964284, 42.433266)
"164",38,"Grundy",7,NA,9,"",NA,8302,"Timothy Christian School",0,8,"Rebecca Johnson","Principal","18000 D Ave","PO Box 70","Wellsburg","50680",6418693679,6418693510,"rjohnson@timothychristianschool.net","POINT (-92.964284 42.433266)","50680","(-92.964284 42.433266)",TRUE,"Middle",c(-92.964284, 42.433266)
"165",97,"Woodbury",12,1926400,6039,"Sioux City  Comm School District",192640002211,547,"Loess Hills Elementary",0,5,"JOHN BEECK","Principal","1717 CASSELMAN STREET","","SIOUX CITY","51103",7122796843,7122796844,"beeckj@live.siouxcityschools.com","POINT (-96.44334 42.508165)","51103","(-96.44334 42.508165)",TRUE,"Elementary",c(-96.44334, 42.508165)
"166",25,"Dallas",11,1932010,7110,"Woodward-Granger  Comm School District",193201002223,427,"Woodward-Granger Early Learning Center",0,1,"Matt Brummond","Principal","2200 State Street","","Granger","50109",5159998058,5159999299,"mattbrummond@wghawks.school","POINT (-93.820562 41.761067)","50109","(-93.820562 41.761067)",TRUE,"Elementary",c(-93.820562, 41.761067)
"167",23,"Clinton",9,1907710,1278,"Clinton  Comm School District",190771001519,480,"Eagle Heights Elementary School",0,5,"Rhett Weis","Principal","1350 Main Ave","","Clinton","52732",5632434288,5632434289,"rweis@clintonia.org","POINT (-90.19686 41.87382600000001)","52732","(-90.19686 41.87382600000001)",TRUE,"Elementary",c(-90.19686, 41.873826)
"168",57,"Linn",10,1906540,1053,"Cedar Rapids  Comm School District",190654000247,502,"Hiawatha Elementary School",0,5,"Stephen Probert","Principal","603 Emmons St","","Hiawatha","52233",3195582172,3193781912,"SProbert@cr.k12.ia.us","POINT (-91.679625 42.038767)","52233","(-91.679625 42.038767)",TRUE,"Elementary",c(-91.679625, 42.038767)
"169",57,"Linn",10,1906540,1053,"Cedar Rapids  Comm School District",190654000248,505,"Hoover Elementary School",0,5,"Clinton Stone","Principal","4141 Johnson Av NW","","Cedar Rapids","52405",3195582369,3193900530,"cstone@cr.k12.ia.us","POINT (-91.725472 41.971349)","52405","(-91.725472 41.971349)",TRUE,"Elementary",c(-91.725472, 41.971349)
"170",71,"O'Brien",12,NA,2862,"",NA,8304,"Sanborn Christian School",0,8,"Anthony Minderhoud","Principal","405 West 2nd St","","Sanborn","51248",7127293288,NA,"sanchr@sanbornchristian.com","POINT (-95.660502 43.181501)","51248","(-95.660502 43.181501)",TRUE,"Elementary",c(-95.660502, 43.181501)
"171",71,"O'Brien",12,NA,2862,"",NA,8304,"Sanborn Christian School",0,8,"Anthony Minderhoud","Principal","405 West 2nd St","","Sanborn","51248",7127293288,NA,"sanchr@sanbornchristian.com","POINT (-95.660502 43.181501)","51248","(-95.660502 43.181501)",TRUE,"Middle",c(-95.660502, 43.181501)
"172",57,"Linn",10,NA,1053,"",NA,8216,"Regis Middle School",6,8,"Beth Globokar","Principal","735 Prairie Dr. NE","","Cedar Rapids","52402",3193631968,3192476099,"bglobokar@regisroyals.org","POINT (-91.64691900000001 42.002597)","52402","(-91.64691900000001 42.002597)",TRUE,"Middle",c(-91.646919, 42.002597)
"173",71,"O'Brien",12,NA,6099,"",NA,8203,"Zion-St. John Lutheran School",0,8,"Daniel Hoey","Principal","103 W Bertha St","P.O.Box 249","Paullina","51046-0249",7129493915,7129493657,"DJHoey@windstream.net","POINT (-95.688217 42.974194)","51046","(-95.688217 42.974194)",TRUE,"Elementary",c(-95.688217, 42.974194)
"174",71,"O'Brien",12,NA,6099,"",NA,8203,"Zion-St. John Lutheran School",0,8,"Daniel Hoey","Principal","103 W Bertha St","P.O.Box 249","Paullina","51046-0249",7129493915,7129493657,"DJHoey@windstream.net","POINT (-95.688217 42.974194)","51046","(-95.688217 42.974194)",TRUE,"Middle",c(-95.688217, 42.974194)
"175",28,"Delaware",1,NA,6961,"",NA,8137,"Hennessy Catholic School Petersburg Center",0,6,"Steven Cornelius","Principal","1623 300th Ave","","Dyersville","52040",5638757572,5638756140,"dbqe33@dbqarch.org","POINT (-91.213305 42.55547)","52040","(-91.213305 42.55547)",TRUE,"Elementary",c(-91.213305, 42.55547)
"176",94,"Webster",5,NA,2313,"",NA,8301,"Community Christian School",0,8,"Maurita Aubrey","Principal","2406 9 1/2 Ave. South","","Fort Dodge","50501",5155733011,5155767698,"ms.aubrey.ccs@gmail.com","POINT (-94.165334 42.494895)","50501","(-94.165334 42.494895)",TRUE,"Elementary",c(-94.165334, 42.494895)
"177",94,"Webster",5,NA,2313,"",NA,8301,"Community Christian School",0,8,"Maurita Aubrey","Principal","2406 9 1/2 Ave. South","","Fort Dodge","50501",5155733011,5155767698,"ms.aubrey.ccs@gmail.com","POINT (-94.165334 42.494895)","50501","(-94.165334 42.494895)",TRUE,"Middle",c(-94.165334, 42.494895)
"178",77,"Polk",11,1908970,1737,"Des Moines Independent  Comm School District",190897002228,724,"Moore Elementary School",0,5,"Beth Sloan","Principal","3725 52nd St","","Des Moines","50310",5152428426,5152785707,"elizabeth.sloan@dmschools.org","POINT (-93.690172 41.62878500000001)","50310","(-93.690172 41.62878500000001)",TRUE,"Elementary",c(-93.690172, 41.628785)
"179",84,"Sioux",12,NA,6990,"",NA,8311,"Ireton Christian School",0,8,"Marlin Schoonhoven","Principal","104 5th St","","Ireton","51027",7122782245,7122782245,"ics@mtcnet.net","POINT (-96.313151 42.973754)","51027","(-96.313151 42.973754)",TRUE,"Elementary",c(-96.313151, 42.973754)
"180",84,"Sioux",12,NA,6990,"",NA,8311,"Ireton Christian School",0,8,"Marlin Schoonhoven","Principal","104 5th St","","Ireton","51027",7122782245,7122782245,"ics@mtcnet.net","POINT (-96.313151 42.973754)","51027","(-96.313151 42.973754)",TRUE,"Middle",c(-96.313151, 42.973754)
"181",52,"Johnson",10,1914700,3141,"Iowa City  Comm School District",191470000881,468,"Bohumil Shimek Elementary School",0,6,"Elizabeth Bruening","Principal","1400 Grissel Place","","Iowa City","52245",3196881160,3196881161,"bruening.elizabeth@iowacityschools.org","POINT (-91.526738 41.679714)","52245","(-91.526738 41.679714)",TRUE,"Elementary",c(-91.526738, 41.679714)
"182",77,"Polk",11,NA,261,"",NA,8504,"Ankeny Christian Academy Elementary",0,6,"Joyce Hansen","Principal","1604 W 1st Street","","Ankeny","50023-2525",5159658114,5159658210,"joyce.hansen@ankenychristianacademy.com","POINT (-93.623057 41.731844)","50023","(-93.623057 41.731844)",TRUE,"Elementary",c(-93.623057, 41.731844)
"183",84,"Sioux",12,NA,5607,"",NA,8315,"Rock Valley Christian School",0,8,"Brad A Vis","Principal","1405 17th St","","Rock Valley","51247",7124762615,7124762777,"bvis@rockvalleychristian.com","POINT (-96.296736 43.207313)","51247","(-96.296736 43.207313)",TRUE,"Elementary",c(-96.296736, 43.207313)
"184",84,"Sioux",12,NA,5607,"",NA,8315,"Rock Valley Christian School",0,8,"Brad A Vis","Principal","1405 17th St","","Rock Valley","51247",7124762615,7124762777,"bvis@rockvalleychristian.com","POINT (-96.296736 43.207313)","51247","(-96.296736 43.207313)",TRUE,"Middle",c(-96.296736, 43.207313)
"185",82,"Scott",9,NA,1611,"",NA,8115,"John F Kennedy Cath Sch",0,8,"Chad C. Steimle","Principal","1627 W 42nd St","","Davenport","52806",5633913030,5633885206,"chad.steimle@olvjfkmail.com","POINT (-90.599018 41.563342)","52806","(-90.599018 41.563342)",TRUE,"Elementary",c(-90.599018, 41.563342)
"186",82,"Scott",9,NA,1611,"",NA,8115,"John F Kennedy Cath Sch",0,8,"Chad C. Steimle","Principal","1627 W 42nd St","","Davenport","52806",5633913030,5633885206,"chad.steimle@olvjfkmail.com","POINT (-90.599018 41.563342)","52806","(-90.599018 41.563342)",TRUE,"Middle",c(-90.599018, 41.563342)
"187",77,"Polk",11,1908970,1737,"Des Moines Independent  Comm School District",190897000567,751,"Oak Park",0,5,"Jill Bryson","Principal","3928 6th Avenue","","Des Moines","50313",5152428428,5152440302,"jill.bryson@dmschools.org","POINT (-93.624793 41.632436)","50313","(-93.624793 41.632436)",TRUE,"Elementary",c(-93.624793, 41.632436)
"188",77,"Polk",11,1908970,1737,"Des Moines Independent  Comm School District",190897000563,715,"Monroe Elementary School",0,5,"Laurel Prior Sweet","Principal","2250 30th St","","Des Moines","50310",5152428425,5152794331,"laurel.prior-sweet@dmschools.org","POINT (-93.658523 41.614457)","50310","(-93.658523 41.614457)",TRUE,"Elementary",c(-93.658523, 41.614457)
"189",84,"Sioux",12,NA,4149,"",NA,8317,"Unity Christian High School",9,12,"Wayne Dykstra","Principal","216 Michigan Ave SW","","Orange City","51041",7127374114,7127372686,"wdykstra@unitychristian.net","POINT (-96.071646 43.003808)","51041","(-96.071646 43.003808)",TRUE,"High",c(-96.071646, 43.003808)
"190",77,"Polk",11,1908970,1737,"Des Moines Independent  Comm School District",190897000746,739,"Brubaker Elementary School",0,5,"Adams Mark","Principal","2900 E 42nd Street","","Des Moines","50317",5152428405,5152655690,"mark.adams@dmschools.org","POINT (-93.532103 41.62261)","50317","(-93.532103 41.62261)",TRUE,"Elementary",c(-93.532103, 41.62261)
"191",82,"Scott",9,1908580,1611,"Davenport  Comm School District",190858000480,535,"Monroe Elementary School",0,5,"Ben Driscooll","Principal","1926 W 4th St","","Davenport","52802",5637236850,5633227477,"driscollb@davenportschools.org","POINT (-90.606196 41.5234)","52802","(-90.606196 41.5234)",TRUE,"Elementary",c(-90.606196, 41.5234)
"192",97,"Woodbury",12,NA,6039,"",NA,8217,"St Pauls Lutheran School",0,5,"Alyce L. Strong","Principal","614 Jennings St","","Sioux City","51101",7122586325,7122521141,"splutheran@cableone.net","POINT (-96.399373 42.496954)","51101","(-96.399373 42.496954)",TRUE,"Elementary",c(-96.399373, 42.496954)
"193",77,"Polk",11,1908970,1737,"Des Moines Independent  Comm School District",190897000531,503,"Findley Elementary School",0,5,"Barbara Adams","Principal","3025 Oxford Street","","Des Moines","50313",5152428407,5152447410,"barbara.adams@dmschools.org","POINT (-93.617504 41.623221)","50313","(-93.617504 41.623221)",TRUE,"Elementary",c(-93.617504, 41.623221)
"194",77,"Polk",11,1908970,1737,"Des Moines Independent  Comm School District",190897000552,647,"Lovejoy Elementary School",0,5,"Michelle Pospeshil","Principal","801 E Kenyon Ave","","Des Moines","50315",5152428419,5152850279,"michelle.pospeshil@dmschools.org","POINT (-93.602409 41.535445)","50315","(-93.602409 41.535445)",TRUE,"Elementary",c(-93.602409, 41.535445)
"195",77,"Polk",11,1908970,1737,"Des Moines Independent  Comm School District",190897001472,855,"South Union Elementary School",0,5,"Bill Szakacs","Principal","4201 South Union","","Des Moines","50315",5152428409,5159530486,"bill.szakacs@dmschools.org","POINT (-93.616106 41.545395)","50315","(-93.616106 41.545395)",TRUE,"Elementary",c(-93.616106, 41.545395)
"196",82,"Scott",9,1908580,1611,"Davenport  Comm School District",190858000484,576,"Walcott Elementary School",0,5,"Mike Lawler","Principal","545 E James St","","Walcott","52773",5634455200,5634455959,"lawlerm@davenportschools.org","POINT (-90.76661800000001 41.587435)","52773","(-90.76661800000001 41.587435)",TRUE,"Elementary",c(-90.766618, 41.587435)
"197",77,"Polk",11,1908970,1737,"Des Moines Independent  Comm School District",190897000571,778,"Phillips Elementary",0,5,"Kristy Fitzgerald","Principal","1701 Lay St","","Des Moines","50317",5152428431,5152653406,"kristy.fitzgerald@dmschools.org","POINT (-93.572442 41.607827)","50317","(-93.572442 41.607827)",TRUE,"Elementary",c(-93.572442, 41.607827)
"198",97,"Woodbury",12,NA,6039,"",NA,8106,"Bishop Heelan Catholic High School",9,12,"Christian Bork","Principal","1021 Douglas St","","Sioux City","51105",7122520573,7122524897,"borkc@bishopheelan.org","POINT (-96.406448 42.50146)","51105","(-96.406448 42.50146)",TRUE,"High",c(-96.406448, 42.50146)
"199",77,"Polk",11,1908970,1737,"Des Moines Independent  Comm School District",190897000577,859,"Stowe Elementary School",0,5,"Jennifer Williams","Principal","1411 E 33rd St","","Des Moines","50317",5152428435,5152660285,"jennifer.williams@dmschools.org","POINT (-93.551468 41.605495)","50317","(-93.551468 41.605495)",TRUE,"Elementary",c(-93.551468, 41.605495)
"200",77,"Polk",11,1908970,1737,"Des Moines Independent  Comm School District",190897000583,886,"Morris Elementary School",0,5,"Sherry Amos","Principal","1401 Geil Avenue","","Des Moines","50315",5152428421,5152851868,"sherry.amos@dmschools.org","POINT (-93.636415 41.524672)","50315","(-93.636415 41.524672)",TRUE,"Elementary",c(-93.636415, 41.524672)
"201",77,"Polk",11,1908970,1737,"Des Moines Independent  Comm School District",190897000561,272,"Merrill Middle School",6,8,"Alex Hanna","Principal","5301 Grand Ave","","Des Moines","50312",5152428448,5152741844,"alex.hanna@dmschools.org","POINT (-93.690182 41.582963)","50312","(-93.690182 41.582963)",TRUE,"Middle",c(-93.690182, 41.582963)
"202",77,"Polk",11,NA,5805,"",NA,8509,"Grand View Christian High School",9,12,"Dick McWilliams","Principal","2905 NE 46th Ave","","Des Moines","50317",5157773977,5157773660,"dmcwilliams@gvcsmail.org","POINT (-93.560975 41.643995000000004)","50317","(-93.560975 41.643995000000004)",TRUE,"High",c(-93.560975, 41.643995)
"203",82,"Scott",9,1908580,1611,"Davenport  Comm School District",190858000473,475,"Jackson Elementary School",0,5,"Teresa Bechen","Principal","1307 Wisconsin","","Davenport","52804",5637236650,5634455974,"bechent@mail.davenport.k12.ia.us","POINT (-90.649366 41.532359)","52804","(-90.649366 41.532359)",TRUE,"Elementary",c(-90.649366, 41.532359)
"204",97,"Woodbury",12,NA,6039,"",NA,8116,"Mater Dei School Nativity Center",5,8,"Mary Fischer","Principal","4243 Natalia Way","","Sioux City","51106",7122740268,7122740377,"fischerm@bishopheelan.org","POINT (-96.353946 42.451523)","51106","(-96.353946 42.451523)",TRUE,"Middle",c(-96.353946, 42.451523)
"205",77,"Polk",11,1930930,6957,"West Des Moines  Comm School District",193093000168,450,"Jordan Creek Elementary School",0,6,"Paul Wenger","Principal","4105 Fuller Rd","","West Des Moines","50265",5156335200,5156335299,"wengerp@wdmcs.org","POINT (-93.756523 41.559272)","50265","(-93.756523 41.559272)",TRUE,"Elementary",c(-93.756523, 41.559272)
"206",77,"Polk",11,1908970,1737,"Des Moines Independent  Comm School District",190897000728,790,"River Woods Elementary School",0,5,"Traci Shipley","Principal","2929 SE 22nd St","","Des Moines","50320",5152428433,5152442386,"traci.shipley@dmschools.org","POINT (-93.577462 41.558003)","50320","(-93.577462 41.558003)",TRUE,"Elementary",c(-93.577462, 41.558003)
"207",84,"Sioux",12,NA,4149,"",NA,8308,"Orange City Christian School",0,8,"Jason Alons","Principal","604 3rd St SW","","Orange City","51041",7127372274,7127378608,"jalons@occhristian.pvt.k12.ia.us","POINT (-96.065356 43.004056)","51041","(-96.065356 43.004056)",TRUE,"Elementary",c(-96.065356, 43.004056)
"208",84,"Sioux",12,NA,4149,"",NA,8308,"Orange City Christian School",0,8,"Jason Alons","Principal","604 3rd St SW","","Orange City","51041",7127372274,7127378608,"jalons@occhristian.pvt.k12.ia.us","POINT (-96.065356 43.004056)","51041","(-96.065356 43.004056)",TRUE,"Middle",c(-96.065356, 43.004056)
"209",97,"Woodbury",12,NA,6039,"",NA,8111,"Sacred Heart School",0,8,"Kate  Connealy","Principal","5010 Military Rd","","Sioux City","51103",7122331624,7122331469,"connealyk@bishopheelan.org","POINT (-96.473033 42.520203)","51103","(-96.473033 42.520203)",TRUE,"Elementary",c(-96.473033, 42.520203)
"210",97,"Woodbury",12,NA,6039,"",NA,8111,"Sacred Heart School",0,8,"Kate  Connealy","Principal","5010 Military Rd","","Sioux City","51103",7122331624,7122331469,"connealyk@bishopheelan.org","POINT (-96.473033 42.520203)","51103","(-96.473033 42.520203)",TRUE,"Middle",c(-96.473033, 42.520203)
"211",77,"Polk",11,NA,1737,"",NA,8107,"St Augustin School",0,8,"Nancy Oneill Dowdle","Principal","4320 Grand Ave","","Des Moines","50312",5152795947,5152798049,"ndowdle@staugustinschool.org","POINT (-93.676893 41.584558)","50312","(-93.676893 41.584558)",TRUE,"Elementary",c(-93.676893, 41.584558)
"212",77,"Polk",11,NA,1737,"",NA,8107,"St Augustin School",0,8,"Nancy Oneill Dowdle","Principal","4320 Grand Ave","","Des Moines","50312",5152795947,5152798049,"ndowdle@staugustinschool.org","POINT (-93.676893 41.584558)","50312","(-93.676893 41.584558)",TRUE,"Middle",c(-93.676893, 41.584558)
"213",82,"Scott",9,1908580,1611,"Davenport  Comm School District",190858002009,127,"Mid City High",9,12,"Jake Klipsch","Principal","3801 Marquette Street","","Davenport","52806",5633367600,5633910357,"klipschj@davenportschools.org","POINT (-90.591047 41.55842700000001)","52806","(-90.591047 41.55842700000001)",TRUE,"High",c(-90.591047, 41.558427)
"214",97,"Woodbury",12,1926400,6039,"Sioux City  Comm School District",192640002178,601,"Spalding Park Elementary",0,5,"Mimi Moore","Principal","4101 Stone Avenue","","Sioux City","51106",7122744043,7122744036,"moorem@live.siouxcityschools.com","POINT (-96.355638 42.479247)","51106","(-96.355638 42.479247)",TRUE,"Elementary",c(-96.355638, 42.479247)
"215",77,"Polk",11,NA,1737,"",NA,8505,"Bergman Academy",0,8,"Herb Hartman","Principal","100 45th St","","Des Moines","50312",5152740453,5152776203,"hhartman@bergmanacademy.org","POINT (-93.67943100000001 41.580857)","50312","(-93.67943100000001 41.580857)",TRUE,"Elementary",c(-93.679431, 41.580857)
"216",77,"Polk",11,NA,1737,"",NA,8505,"Bergman Academy",0,8,"Herb Hartman","Principal","100 45th St","","Des Moines","50312",5152740453,5152776203,"hhartman@bergmanacademy.org","POINT (-93.67943100000001 41.580857)","50312","(-93.67943100000001 41.580857)",TRUE,"Middle",c(-93.679431, 41.580857)
"217",82,"Scott",9,NA,621,"",NA,8114,"Lourdes Catholic School",0,8,"Jennifer Alongi","Principal","1453 Mississippi Blvd","","Bettendorf","52722",5633593466,5638231595,"jennifer.alongi@lourdes.pvt.k12.ia.us","POINT (-90.51181 41.528303)","52722","(-90.51181 41.528303)",TRUE,"Elementary",c(-90.51181, 41.528303)
"218",82,"Scott",9,NA,621,"",NA,8114,"Lourdes Catholic School",0,8,"Jennifer Alongi","Principal","1453 Mississippi Blvd","","Bettendorf","52722",5633593466,5638231595,"jennifer.alongi@lourdes.pvt.k12.ia.us","POINT (-90.51181 41.528303)","52722","(-90.51181 41.528303)",TRUE,"Middle",c(-90.51181, 41.528303)
"219",77,"Polk",11,1908970,1737,"Des Moines Independent  Comm School District",190897000544,589,"Howe Elementary",0,5,"Jill Burke","Principal","2900 Indianola","","Des Moines","50315",5152428413,5152884128,"jill.burke@dmschools.org","POINT (-93.603089 41.558675)","50315","(-93.603089 41.558675)",TRUE,"Elementary",c(-93.603089, 41.558675)
"220",77,"Polk",11,1908970,1737,"Des Moines Independent  Comm School District",190897000589,931,"Wright Elementary School",0,5,"Michelle Hurlburg","Principal","5001 SW 14th St","","Des Moines","50315",5152428442,5152856247,"michelle.hurlburg@dmschools.org","POINT (-93.635387 41.539471)","50315","(-93.635387 41.539471)",TRUE,"Elementary",c(-93.635387, 41.539471)
"221",77,"Polk",11,1915450,3231,"Johnston  Comm School District",191545000653,432,"Horizon Elementary",0,5,"Lindsey Cornwell","Principal","5905 N W 100th Street","PO Box 10","Johnston","50131",5159861121,5159861131,"lindsey.cornwell@johnston.k12.ia.us","POINT (-93.755863 41.66668)","50131","(-93.755863 41.66668)",TRUE,"Elementary",c(-93.755863, 41.66668)
"222",77,"Polk",11,1908970,1737,"Des Moines Independent  Comm School District",190897000539,562,"Hanawalt Elementary",0,5,"Kelly Schofield","Principal","225 56th Street","","Des Moines","50312",5152428411,5152551792,"kelly.schofield@dmschools.org","POINT (-93.693743 41.579616)","50312","(-93.693743 41.579616)",TRUE,"Elementary",c(-93.693743, 41.579616)
"223",77,"Polk",11,1928680,6579,"Urbandale  Comm School District",192868001658,441,"Rolling Green Elementary School",0,5,"Julia Taylor","Principal","8100 Airline Avenue","","Urbandale","50322-2446",5154575900,5154575904,"taylorj@urbandaleschools.com","POINT (-93.730005 41.632979)","50322","(-93.730005 41.632979)",TRUE,"Elementary",c(-93.730005, 41.632979)
"224",77,"Polk",11,1908970,1737,"Des Moines Independent  Comm School District",190897002166,706,"Mitchell Early Childhood Center",0,0,"Susan Guest","Supervisor","111 Porter","","Des Moines","50310",5152428424,NA,"susan.guest@dmschools.org","POINT (-93.61734600000001 41.53371)","50310","(-93.61734600000001 41.53371)",TRUE,"Elementary",c(-93.617346, 41.53371)
"225",77,"Polk",11,1908970,1737,"Des Moines Independent  Comm School District",190897000560,269,"Meredith Middle School",6,8,"Victor Colemon","Principal","4827 Madison Ave","","Des Moines","50310",5152427250,5152428291,"victor.colemon@dmschools.org","POINT (-93.684738 41.633099)","50310","(-93.684738 41.633099)",TRUE,"Middle",c(-93.684738, 41.633099)
"226",77,"Polk",11,NA,6579,"",NA,8502,"Des Moines Christian Elementary School",0,6,"Karla Lowe","Principal","13007 Douglas Parkway","Suite 200","Urbandale","50323",5152522485,5152516911,"klowe@dmcs.org","POINT (-93.797413 41.627208)","50323","(-93.797413 41.627208)",TRUE,"Elementary",c(-93.797413, 41.627208)
"227",79,"Poweshiek",7,NA,2709,"",NA,8501,"Central Iowa Christian  School",0,8,"Kim Hinton","Other Administrator","201 380th Ave","","Grinnell","50112",6412363000,6412361433,"cics@windstream.net","POINT (-92.74589 41.74618)","50112","(-92.74589 41.74618)",TRUE,"Elementary",c(-92.74589, 41.74618)
"228",79,"Poweshiek",7,NA,2709,"",NA,8501,"Central Iowa Christian  School",0,8,"Kim Hinton","Other Administrator","201 380th Ave","","Grinnell","50112",6412363000,6412361433,"cics@windstream.net","POINT (-92.74589 41.74618)","50112","(-92.74589 41.74618)",TRUE,"Middle",c(-92.74589, 41.74618)
"229",78,"Pottawattamie",13,NA,3645,"",NA,8100,"Heartland Christian School",0,6,"Justin Steinmetz","Principal","400 Wright Rd","","Council Bluffs","51501",7123225817,7123224287,"jsteinmetz@heartlandchristiancbia.org","POINT (-95.852246 41.218217)","51501","(-95.852246 41.218217)",TRUE,"Elementary",c(-95.852246, 41.218217)
"230",97,"Woodbury",12,1926400,6039,"Sioux City  Comm School District",192640001522,136,"North High School",9,12,"Ryan Dumkrieger","Principal","4200 Cheyenne","","Sioux City","51104-4340",7122397000,7122398270,"dumkrir@live.siouxcityschools.com","POINT (-96.393005 42.543388)","51104","(-96.393005 42.543388)",TRUE,"High",c(-96.393005, 42.543388)
"231",97,"Woodbury",12,1926400,6039,"Sioux City  Comm School District",192640002165,542,"Liberty Elementary School",0,5,"Stacie  Hendersen","Principal","1623 Rebecca Street","","Sioux City","51103",7122796845,7122796808,"henders1@live.siouxcityschools.com","POINT (-96.425472 42.507794000000004)","51103","(-96.425472 42.507794000000004)",TRUE,"Elementary",c(-96.425472, 42.507794)
"232",97,"Woodbury",12,1926400,6039,"Sioux City  Comm School District",192640001287,220,"North Middle School",6,8,"Shawn Chesteen","Principal","2101 Outer Dr N","","Sioux City","51108",7122796804,7122775941,"chestes@live.siouxcityschools.com","POINT (-96.383553 42.541073)","51108","(-96.383553 42.541073)",TRUE,"Middle",c(-96.383553, 42.541073)
"233",77,"Polk",11,1908970,1737,"Des Moines Independent  Comm School District",190897000587,913,"Windsor Elementary",0,5,"Robert Nichols","Principal","5912 University Avenue","","Des Moines","50311",5152428440,5152795372,"robert.nichols@dmschools.org","POINT (-93.699455 41.600415)","50311","(-93.699455 41.600415)",TRUE,"Elementary",c(-93.699455, 41.600415)
"234",77,"Polk",11,1908970,1737,"Des Moines Independent  Comm School District",190897000232,935,"Downtown School",0,6,"Robert Burnett","Principal","1800 Grand Ave","","Des Moines","50309",5152845848,5152840890,"robert.burnett@dmschools.org","POINT (-93.641783 41.584446)","50309","(-93.641783 41.584446)",TRUE,"Elementary",c(-93.641783, 41.584446)
"235",97,"Woodbury",12,1926400,6039,"Sioux City  Comm School District",192640002220,572,"Morningside Elementary",0,5,"Dawn  Stansbury","Principal","3601 Bushnell Ave","","Sioux City","51106",7122744048,7122747479,"stansbd@live.siouxcityschools.com","POINT (-96.36034 42.463514)","51106","(-96.36034 42.463514)",TRUE,"Elementary",c(-96.36034, 42.463514)
"236",84,"Sioux",12,NA,747,"",NA,8306,"Hull Protestant Reformed Christian School",0,8,"Loren Gritters","Principal","218 2nd St","","Hull","51239",7124392490,7124392592,"lgritters@hprcs.com","POINT (-96.146129 43.189373)","51239","(-96.146129 43.189373)",TRUE,"Elementary",c(-96.146129, 43.189373)
"237",84,"Sioux",12,NA,747,"",NA,8306,"Hull Protestant Reformed Christian School",0,8,"Loren Gritters","Principal","218 2nd St","","Hull","51239",7124392490,7124392592,"lgritters@hprcs.com","POINT (-96.146129 43.189373)","51239","(-96.146129 43.189373)",TRUE,"Middle",c(-96.146129, 43.189373)
"238",77,"Polk",11,1908970,1737,"Des Moines Independent  Comm School District",190897000580,988,"Ruby Van Meter School",6,12,"Cynthia Weisz","Principal","710 28th St","","Des Moines","50312",5152428220,5152428223,"cynthia.weisz@dmschools.org","POINT (-93.654457 41.590289)","50312","(-93.654457 41.590289)",TRUE,"High",c(-93.654457, 41.590289)
"239",77,"Polk",11,1908970,1737,"Des Moines Independent  Comm School District",190897000580,988,"Ruby Van Meter School",6,12,"Cynthia Weisz","Principal","710 28th St","","Des Moines","50312",5152428220,5152428223,"cynthia.weisz@dmschools.org","POINT (-93.654457 41.590289)","50312","(-93.654457 41.590289)",TRUE,"Middle",c(-93.654457, 41.590289)
"240",77,"Polk",11,1908970,1737,"Des Moines Independent  Comm School District",190897000569,760,"Park Ave Elementary School",0,5,"Dianna Anderson","Principal","3141 SW 9th St","","Des Moines","50315",5152428429,5152448238,"dianna.anderson@dmschools.org","POINT (-93.625657 41.556246)","50315","(-93.625657 41.556246)",TRUE,"Elementary",c(-93.625657, 41.556246)
"241",77,"Polk",11,1908970,1737,"Des Moines Independent  Comm School District",190897000557,266,"McCombs Middle School",6,8,"Nancy Croy","Principal","201 SW County Line Rd","","Des Moines","50320",5152428447,5152872644,"nancy.croy@dmschools.org","POINT (-93.61778000000001 41.51203)","50320","(-93.61778000000001 41.51203)",TRUE,"Middle",c(-93.61778, 41.51203)
"242",96,"Winneshiek",1,NA,6100,"",NA,8105,"De Sales Grade School",0,8,"Kristin Kriener","Principal","414 E Main St","","Ossian","52161",5635329352,5635329353,"dbqe46@dbqarch.org","POINT (-91.758049 43.143339)","52161","(-91.758049 43.143339)",TRUE,"Elementary",c(-91.758049, 43.143339)
"243",96,"Winneshiek",1,NA,6100,"",NA,8105,"De Sales Grade School",0,8,"Kristin Kriener","Principal","414 E Main St","","Ossian","52161",5635329352,5635329353,"dbqe46@dbqarch.org","POINT (-91.758049 43.143339)","52161","(-91.758049 43.143339)",TRUE,"Middle",c(-91.758049, 43.143339)
"244",77,"Polk",11,1908970,1737,"Des Moines Independent  Comm School District",190897000529,490,"Edmunds Fine Arts Academy",0,5,"Jaynette Rittman","Principal","950 15th Street","","Des Moines","50314",5152431174,5152441568,"jaynette.rittman@dmschools.org","POINT (-93.63777 41.594379)","50314","(-93.63777 41.594379)",TRUE,"Elementary",c(-93.63777, 41.594379)
"245",77,"Polk",11,1908970,1737,"Des Moines Independent  Comm School District",190897000576,850,"Smouse Opportunity School",0,8,"Roxanne Cumings","Principal","2820 Center St","","Des Moines","50312",5152428210,5152428214,"roxanne.cumings@dmschools.org","POINT (-93.656873 41.591685)","50312","(-93.656873 41.591685)",TRUE,"Elementary",c(-93.656873, 41.591685)
"246",77,"Polk",11,1908970,1737,"Des Moines Independent  Comm School District",190897000576,850,"Smouse Opportunity School",0,8,"Roxanne Cumings","Principal","2820 Center St","","Des Moines","50312",5152428210,5152428214,"roxanne.cumings@dmschools.org","POINT (-93.656873 41.591685)","50312","(-93.656873 41.591685)",TRUE,"Middle",c(-93.656873, 41.591685)
"247",77,"Polk",11,1908970,1737,"Des Moines Independent  Comm School District",190897000538,553,"Greenwood Elementary School",0,5,"Andrea Safina","Principal","316 37th Street","","Des Moines","50312",5152428410,5152775673,"andrea.safina@dmschools.org","POINT (-93.666601 41.582379)","50312","(-93.666601 41.582379)",TRUE,"Elementary",c(-93.666601, 41.582379)
"248",78,"Pottawattamie",13,1908220,1476,"Council Bluffs  Comm School District",190822000419,212,"Gerald W Kirn Middle School",6,8,"Kerry Newman","Principal","100 North Ave","","Council Bluffs","51503",7123286454,7123286456,"knewman@cbcsd.org","POINT (-95.831134 41.27219)","51503","(-95.831134 41.27219)",TRUE,"Middle",c(-95.831134, 41.27219)
"249",84,"Sioux",12,NA,6030,"",NA,8314,"Sioux Center Christian School",0,8,"Josh Bowar","Superintendent","630 First Ave SE","PO Box 165","Sioux Center","51250-0165",7127220777,7127220782,"jbowar@siouxcenterchristian.com","POINT (-96.173981 43.071907)","51250","(-96.173981 43.071907)",TRUE,"Elementary",c(-96.173981, 43.071907)
"250",84,"Sioux",12,NA,6030,"",NA,8314,"Sioux Center Christian School",0,8,"Josh Bowar","Superintendent","630 First Ave SE","PO Box 165","Sioux Center","51250-0165",7127220777,7127220782,"jbowar@siouxcenterchristian.com","POINT (-96.173981 43.071907)","51250","(-96.173981 43.071907)",TRUE,"Middle",c(-96.173981, 43.071907)
"251",77,"Polk",11,1908970,1737,"Des Moines Independent  Comm School District",190897000565,733,"Moulton Elementary School",0,5,"Eric Van Dorin","Principal","1541 8th Street","","Des Moines","50314",5152428427,5152881346,"eric.vandorin@dmschools.org","POINT (-93.628156 41.60707)","50314","(-93.628156 41.60707)",TRUE,"Elementary",c(-93.628156, 41.60707)
"252",85,"Story",11,1903540,225,"Ames  Comm School District",190354000054,456,"Mitchell Elementary School",0,5,"Justin Jeffs","Principal","3521 Jewel Dr","","Ames","50010",5152393775,5152393823,"justin.jeffs@ames.k12.ia.us","POINT (-93.600105 41.990178)","50010","(-93.600105 41.990178)",TRUE,"Elementary",c(-93.600105, 41.990178)
"253",78,"Pottawattamie",13,1908220,1476,"Council Bluffs  Comm School District",190822000440,245,"Woodrow Wilson Middle School",6,8,"Kim Kazmierczak","Principal","712 N 21st St","","Council Bluffs","51501-0902",7123286476,7123286479,"kkazmierczak@cbcsd.org","POINT (-95.874858 41.268525)","51501","(-95.874858 41.268525)",TRUE,"Middle",c(-95.874858, 41.268525)
"254",97,"Woodbury",12,1926400,6039,"Sioux City  Comm School District",192640001526,580,"Riverside Elementary School",0,5,"Dr. Angela Holcomb","Principal","2303 Riverside Blvd","","Sioux City","51109",7122796811,7122776139,"holcoma@live.siouxcityschools.com","POINT (-96.475135 42.51753800000001)","51109","(-96.475135 42.51753800000001)",TRUE,"Elementary",c(-96.475135, 42.517538)
"255",77,"Polk",11,1903690,261,"Ankeny  Comm School District",190369000072,405,"East Elementary School",0,5,"Andrew Burg","Principal","710 SE 3rd","","Ankeny","50021-0189",5159659660,5159659663,"andrew.burg@ankenyschools.org","POINT (-93.589648 41.729636)","50021","(-93.589648 41.729636)",TRUE,"Elementary",c(-93.589648, 41.729636)
"256",77,"Polk",11,1908970,1737,"Des Moines Independent  Comm School District",190897000559,697,"McKinley Elementary School",0,5,"Lois Brass","Principal","1610 SE 6th Street","","Des Moines","50315",5152428423,5152821327,"lois.brass@dmschools.org","POINT (-93.605265 41.573197)","50315","(-93.605265 41.573197)",TRUE,"Elementary",c(-93.605265, 41.573197)
"257",82,"Scott",9,NA,1611,"",NA,8212,"Trinity Lutheran School",0,8,"Bill Meyer","Principal","1122 W Central Pk Ave","","Davenport","52804",5633225224,5633249153,"bill.meyer@trinitydavenport.org","POINT (-90.589906 41.545508)","52804","(-90.589906 41.545508)",TRUE,"Elementary",c(-90.589906, 41.545508)
"258",82,"Scott",9,NA,1611,"",NA,8212,"Trinity Lutheran School",0,8,"Bill Meyer","Principal","1122 W Central Pk Ave","","Davenport","52804",5633225224,5633249153,"bill.meyer@trinitydavenport.org","POINT (-90.589906 41.545508)","52804","(-90.589906 41.545508)",TRUE,"Middle",c(-90.589906, 41.545508)
"259",82,"Scott",9,1908580,1611,"Davenport  Comm School District",190858001881,573,"Truman Elementary School",0,5,"Cory Williams","Principal","5506 N Pine","","Davenport","52806",5637236900,NA,"williamsco@davenportschools.org","POINT (-90.610118 41.577734)","52806","(-90.610118 41.577734)",TRUE,"Elementary",c(-90.610118, 41.577734)
"260",77,"Polk",11,1908970,1737,"Des Moines Independent  Comm School District",190897002093,819,"Samuelson Elementary School",0,5,"Cindy Roerig","Principal","3929 Bel-Aire Rd","","Des Moines","50310",5152428441,5153310971,"cindy.roerig@dmschools.org","POINT (-93.671658 41.640016)","50310","(-93.671658 41.640016)",TRUE,"Elementary",c(-93.671658, 41.640016)
"261",84,"Sioux",12,NA,747,"",NA,8305,"Hull Christian School",0,8,"Randy Ten Pas","Principal","1301 5th St","Box 550","Hull","51239",7124392273,8889900581,"rtenpas@hullchristian.com","POINT (-96.129572 43.19273)","51239","(-96.129572 43.19273)",TRUE,"Elementary",c(-96.129572, 43.19273)
"262",84,"Sioux",12,NA,747,"",NA,8305,"Hull Christian School",0,8,"Randy Ten Pas","Principal","1301 5th St","Box 550","Hull","51239",7124392273,8889900581,"rtenpas@hullchristian.com","POINT (-96.129572 43.19273)","51239","(-96.129572 43.19273)",TRUE,"Middle",c(-96.129572, 43.19273)
"263",78,"Pottawattamie",13,1908220,1476,"Council Bluffs  Comm School District",190822000422,481,"Hoover Elementary School",0,5,"Brittany Hettrick","Principal","1205 North Broadway","","Council Bluffs","51503",7123286537,7123286538,"bhettrick@cbcsd.org","POINT (-95.836264 41.272733)","51503","(-95.836264 41.272733)",TRUE,"Elementary",c(-95.836264, 41.272733)
"264",77,"Polk",11,1930930,6957,"West Des Moines  Comm School District",193093002055,476,"Westridge Elementary",0,6,"Nathan Ballagh","Principal","5500 E P True Parkway","","West Des Moines","50266",5156335400,5156335499,"ballaghn@wdmcs.org","POINT (-93.781023 41.573572)","50266","(-93.781023 41.573572)",TRUE,"Elementary",c(-93.781023, 41.573572)
"265",82,"Scott",9,1908580,1611,"Davenport  Comm School District",190858000485,223,"Walcott Intermediate",6,8,"Mike Lawler","Principal","545 E James St","","Walcott","52773",5634455200,5634455959,"lawlerm@davenportschools.org","POINT (-90.76661800000001 41.587435)","52773","(-90.76661800000001 41.587435)",TRUE,"Middle",c(-90.766618, 41.587435)
"266",77,"Polk",11,1908970,1737,"Des Moines Independent  Comm School District",190897002218,618,"Jessie Franklin Taylor",0,0,"Susan Guest","Supervisor","1801 16th Street","","Des Moines","50314",5152428424,NA,"susan.guest@dmschools.org","POINT (-93.63901000000001 41.611593)","50314","(-93.63901000000001 41.611593)",TRUE,"Elementary",c(-93.63901, 41.611593)
"267",78,"Pottawattamie",13,1908220,1476,"Council Bluffs  Comm School District",190822000425,499,"Longfellow Elementary School",0,5,"Garry Milbourn","Principal","2011 S 10th St","","Council Bluffs","51501",7123286522,7123286524,"gmilbourn@cbcsd.org","POINT (-95.859016 41.242114)","51501","(-95.859016 41.242114)",TRUE,"Elementary",c(-95.859016, 41.242114)
"268",77,"Polk",11,1908970,1737,"Des Moines Independent  Comm School District",190897000572,782,"Pleasant Hill Elementary School",0,5,"Terrie Price","Principal","4801 E Oakwood Dr","","Des Moines","50327",5152428432,5152658344,"terrie.price@dmschools.org","POINT (-93.520093 41.587511)","50327","(-93.520093 41.587511)",TRUE,"Elementary",c(-93.520093, 41.587511)
"269",82,"Scott",9,1908580,1611,"Davenport  Comm School District",190858000477,508,"Madison Elementary School",0,5,"Steve Mielenhausen","Principal","116 E Locust St","","Davenport","52803",5637236750,5634455976,"mielenhausens@davenportschools.org","POINT (-90.573321 41.538259)","52803","(-90.573321 41.538259)",TRUE,"Elementary",c(-90.573321, 41.538259)
"270",78,"Pottawattamie",13,1908220,1476,"Council Bluffs  Comm School District",190822000413,422,"Carter Lake Elementary School",0,5,"Doreen Knuth","Principal","1000 Willow Drive","","Carter Lake","51510-1399",7123475876,7123475273,"dknuth@cbcsd.org","POINT (-95.916467 41.290322)","51510","(-95.916467 41.290322)",TRUE,"Elementary",c(-95.916467, 41.290322)
"271",77,"Polk",11,1908970,1737,"Des Moines Independent  Comm School District",190897001143,984,"Walnut Street School",0,5,"Amy Laug","Principal","901 Walnut St","","Des Moines","50309",5152428438,5152428372,"amy.laug@dmschools.org","POINT (-93.62873500000002 41.585043)","50309","(-93.62873500000002 41.585043)",TRUE,"Elementary",c(-93.628735, 41.585043)
"272",77,"Polk",11,1926820,6101,"Southeast Polk  Comm School District",192682002134,438,"Spring Creek - 6th Grade",6,6,"Scott Bauer","Principal","8031 NE University Ave.","","Pleasant Hill","50327",5159675533,5159675572,"scott.bauer@southeastpolk.org","POINT (-93.443525 41.600392)","50327","(-93.443525 41.600392)",TRUE,"Middle",c(-93.443525, 41.600392)
"273",82,"Scott",9,1908580,1611,"Davenport  Comm School District",190858000458,414,"Buchanan Elementary School",0,5,"Rachel Ivory","Principal","4515 N. Fairmount","","Davenport","52806",5637236250,5634455964,"ivoryr@davenportschools.org","POINT (-90.629505 41.566275)","52806","(-90.629505 41.566275)",TRUE,"Elementary",c(-90.629505, 41.566275)
"274",82,"Scott",9,NA,621,"",NA,8110,"Rivermont Collegiate",0,12,"C. Max Roach","Other Administrator","1821 Sunset Drive","","Bettendorf","52722",5633591366,NA,"roach@rvmt.org","POINT (-90.506308 41.530363)","52722","(-90.506308 41.530363)",TRUE,"Elementary",c(-90.506308, 41.530363)
"275",82,"Scott",9,NA,621,"",NA,8110,"Rivermont Collegiate",0,12,"C. Max Roach","Other Administrator","1821 Sunset Drive","","Bettendorf","52722",5633591366,NA,"roach@rvmt.org","POINT (-90.506308 41.530363)","52722","(-90.506308 41.530363)",TRUE,"High",c(-90.506308, 41.530363)
"276",82,"Scott",9,NA,621,"",NA,8110,"Rivermont Collegiate",0,12,"C. Max Roach","Other Administrator","1821 Sunset Drive","","Bettendorf","52722",5633591366,NA,"roach@rvmt.org","POINT (-90.506308 41.530363)","52722","(-90.506308 41.530363)",TRUE,"Middle",c(-90.506308, 41.530363)
"277",77,"Polk",11,1908970,1737,"Des Moines Independent  Comm School District",190897000585,904,"Willard Elementary School",0,5,"Julie Kruse","Principal","2941 Dean Avenue","","Des Moines","50317",5152428439,5152651388,"julie.kruse@dmschools.org","POINT (-93.55916500000001 41.591468)","50317","(-93.55916500000001 41.591468)",TRUE,"Elementary",c(-93.559165, 41.591468)
"278",77,"Polk",11,1908970,1737,"Des Moines Independent  Comm School District",190897000584,281,"Weeks Middle School",6,8,"Audrey Rieken","Principal","901 East Park Avenue","","Des Moines","50315",5152428449,5152886755,"Audrey.Rieken@dmschools.org","POINT (-93.600456 41.555332)","50315","(-93.600456 41.555332)",TRUE,"Middle",c(-93.600456, 41.555332)
"279",77,"Polk",11,1908970,1737,"Des Moines Independent  Comm School District",190897000578,863,"Studebaker Elementary School",0,5,"Brian Crook","Principal","300 E County Line Rd","","Des Moines","50315",5152428436,5152871740,"brian.crook@dmschools.org","POINT (-93.613388 41.511948)","50315","(-93.613388 41.511948)",TRUE,"Elementary",c(-93.613388, 41.511948)
"280",77,"Polk",11,1908970,1737,"Des Moines Independent  Comm School District",190897000556,620,"King Elementary School",0,5,"Kisha Barnes","Principal","1849 Forest Ave","","Des Moines","50314",5152428417,5152881382,"kisha.barnes@dmschools.org","POINT (-93.641424 41.604079)","50314","(-93.641424 41.604079)",TRUE,"Elementary",c(-93.641424, 41.604079)
"281",82,"Scott",9,1923110,5250,"Pleasant Valley  Comm School District",192311002164,407,"Hopewell Elementary",0,6,"Christopher Welch","Principal","3900 Hopewell Ave","","Bettendorf","52722",5633320250,5633320255,"welchchris@pleasval.k12.ia.us","POINT (-90.477744 41.58261)","52722","(-90.477744 41.58261)",TRUE,"Elementary",c(-90.477744, 41.58261)
"282",82,"Scott",9,1908580,1611,"Davenport  Comm School District",190858001416,962,"Children's Village Hayes",0,0,"Tammy Conrad","Principal","622 S Concord St","","Davenport","52802",5637236550,NA,"conradt@davenportschools.org","POINT (-90.622255 41.512529)","52802","(-90.622255 41.512529)",TRUE,"Elementary",c(-90.622255, 41.512529)
"283",82,"Scott",9,1908580,1611,"Davenport  Comm School District",190858001977,116,"North High School",9,12,"Jay Chelf","Principal","626 W 53rd St","","Davenport","52806",5637235500,5633889456,"chelfj@davenportschools.org","POINT (-90.580203 41.574527)","52806","(-90.580203 41.574527)",TRUE,"High",c(-90.580203, 41.574527)
"284",77,"Polk",11,NA,1737,"",NA,8221,"Mt Olive Lutheran School",0,8,"Cory Emily","Principal","5625 Franklin","","Des Moines","50310-1099",5152770247,5152742723,"cory.emily@molcs.org","POINT (-93.695852 41.61126)","50310","(-93.695852 41.61126)",TRUE,"Elementary",c(-93.695852, 41.61126)
"285",77,"Polk",11,NA,1737,"",NA,8221,"Mt Olive Lutheran School",0,8,"Cory Emily","Principal","5625 Franklin","","Des Moines","50310-1099",5152770247,5152742723,"cory.emily@molcs.org","POINT (-93.695852 41.61126)","50310","(-93.695852 41.61126)",TRUE,"Middle",c(-93.695852, 41.61126)
"286",97,"Woodbury",12,1926400,6039,"Sioux City  Comm School District",192640001934,539,"Leeds Elementary School",0,5,"Angela Bemus","Principal","3919 Jefferson St","","Sioux City","51108-1438",7122397034,7122397036,"bemusa@live.siouxcityschools.com","POINT (-96.367678 42.537806)","51108","(-96.367678 42.537806)",TRUE,"Elementary",c(-96.367678, 42.537806)
"287",77,"Polk",11,1908970,1737,"Des Moines Independent  Comm School District",190897000541,571,"Hillis Elementary School",0,5,"Renee Gelfond","Principal","2401 56th St","","Des Moines","50310",5152428412,5152790942,"renee.gelfond@dmschools.org","POINT (-93.694322 41.615861)","50310","(-93.694322 41.615861)",TRUE,"Elementary",c(-93.694322, 41.615861)
"288",82,"Scott",9,1908580,1611,"Davenport  Comm School District",190858000482,218,"Sudlow Intermediate",6,8,"Tonya Wilkiins","Principal","1414 E Locust St","","Davenport","52803",5634455150,5633262248,"wilkinst@davenportschools.org","POINT (-90.554328 41.538331)","52803","(-90.554328 41.538331)",TRUE,"Middle",c(-90.554328, 41.538331)
"289",77,"Polk",11,NA,1737,"",NA,8119,"Holy Trinity School",0,8,"Anne Franklin","Principal","2922 Beaver Ave","","Des Moines","50310",5152553162,5152551381,"afranklin@htschool.org","POINT (-93.673964 41.622248)","50310","(-93.673964 41.622248)",TRUE,"Elementary",c(-93.673964, 41.622248)
"290",77,"Polk",11,NA,1737,"",NA,8119,"Holy Trinity School",0,8,"Anne Franklin","Principal","2922 Beaver Ave","","Des Moines","50310",5152553162,5152551381,"afranklin@htschool.org","POINT (-93.673964 41.622248)","50310","(-93.673964 41.622248)",TRUE,"Middle",c(-93.673964, 41.622248)
"291",82,"Scott",9,1908580,1611,"Davenport  Comm School District",190858000490,205,"Wood Intermediate",6,8,"Sheri Simpson-Schultz","Principal","5701 N Division","","Davenport","52806",5634455300,5633914416,"simpsonschultzs@davenportschools.org","POINT (-90.600303 41.579214)","52806","(-90.600303 41.579214)",TRUE,"Middle",c(-90.600303, 41.579214)
"292",77,"Polk",11,NA,261,"",NA,8503,"Ankeny Christian  Academy",7,12,"Steve Robinson","Superintendent","1604 W. 1st Street","","Ankeny","50023-2525",5159658114,5159658210,"steve.robinson@ankenychristianacademy.com","POINT (-93.623057 41.731844)","50023","(-93.623057 41.731844)",TRUE,"High",c(-93.623057, 41.731844)
"293",77,"Polk",11,NA,261,"",NA,8503,"Ankeny Christian  Academy",7,12,"Steve Robinson","Superintendent","1604 W. 1st Street","","Ankeny","50023-2525",5159658114,5159658210,"steve.robinson@ankenychristianacademy.com","POINT (-93.623057 41.731844)","50023","(-93.623057 41.731844)",TRUE,"Middle",c(-93.623057, 41.731844)
"294",84,"Sioux",12,NA,5607,"",NA,8319,"Netherlands Reformed Christian School",0,12,"Daniel Breuer","Principal","712 20th Avenue","","Rock Valley","51247",7124762821,7124765438,"dbreuer@nrcsia.org","POINT (-96.28823900000002 43.196)","51247","(-96.28823900000002 43.196)",TRUE,"Elementary",c(-96.288239, 43.196)
"295",84,"Sioux",12,NA,5607,"",NA,8319,"Netherlands Reformed Christian School",0,12,"Daniel Breuer","Principal","712 20th Avenue","","Rock Valley","51247",7124762821,7124765438,"dbreuer@nrcsia.org","POINT (-96.28823900000002 43.196)","51247","(-96.28823900000002 43.196)",TRUE,"High",c(-96.288239, 43.196)
"296",84,"Sioux",12,NA,5607,"",NA,8319,"Netherlands Reformed Christian School",0,12,"Daniel Breuer","Principal","712 20th Avenue","","Rock Valley","51247",7124762821,7124765438,"dbreuer@nrcsia.org","POINT (-96.28823900000002 43.196)","51247","(-96.28823900000002 43.196)",TRUE,"Middle",c(-96.288239, 43.196)
"297",84,"Sioux",12,NA,747,"",NA,8309,"Western Christian High School",9,12,"Dan Barkel","Principal","925 5th St","PO Box  658","Hull","51239",7124391013,7124391407,"dan.barkel@westernchristianhs.com","POINT (-96.133871 43.192707)","51239","(-96.133871 43.192707)",TRUE,"High",c(-96.133871, 43.192707)
"298",97,"Woodbury",12,1926400,6039,"Sioux City  Comm School District",192640002080,528,"Irving Preschool",0,0,"Kimberly Burrack","Supervisor","710 Iowa St","","Sioux City","51105",7122930436,7122247473,"burrack@live.siouxcityschools.com","POINT (-96.394951 42.498449)","51105","(-96.394951 42.498449)",TRUE,"Elementary",c(-96.394951, 42.498449)
"299",77,"Polk",11,1908970,1737,"Des Moines Independent Comm School District",190897000568,977,"Orchard Place School",0,12,"Gail Soesbe","Principal","5412 SW 9th Street","","Des Moines","50315",5152879700,5152879707,"gail.soesbe@dmschools.org","POINT (-93.625747 41.535433)","50315","(-93.625747 41.535433)",TRUE,"Elementary",c(-93.625747, 41.535433)
"300",77,"Polk",11,1908970,1737,"Des Moines Independent Comm School District",190897000568,977,"Orchard Place School",0,12,"Gail Soesbe","Principal","5412 SW 9th Street","","Des Moines","50315",5152879700,5152879707,"gail.soesbe@dmschools.org","POINT (-93.625747 41.535433)","50315","(-93.625747 41.535433)",TRUE,"High",c(-93.625747, 41.535433)
"301",77,"Polk",11,1908970,1737,"Des Moines Independent Comm School District",190897000568,977,"Orchard Place School",0,12,"Gail Soesbe","Principal","5412 SW 9th Street","","Des Moines","50315",5152879700,5152879707,"gail.soesbe@dmschools.org","POINT (-93.625747 41.535433)","50315","(-93.625747 41.535433)",TRUE,"Middle",c(-93.625747, 41.535433)
"302",78,"Pottawattamie",13,NA,1476,"",NA,8004,"Saint Albert Catholic  Schools",0,12,"Joe Connolly","Other Administrator","400 Gleason Avenue","","Council Bluffs","51503",7123299000,7123280228,"connollyj@saintalbertschools.org","POINT (-95.821227 41.260942)","51503","(-95.821227 41.260942)",TRUE,"Elementary",c(-95.821227, 41.260942)
"303",78,"Pottawattamie",13,NA,1476,"",NA,8004,"Saint Albert Catholic  Schools",0,12,"Joe Connolly","Other Administrator","400 Gleason Avenue","","Council Bluffs","51503",7123299000,7123280228,"connollyj@saintalbertschools.org","POINT (-95.821227 41.260942)","51503","(-95.821227 41.260942)",TRUE,"High",c(-95.821227, 41.260942)
"304",78,"Pottawattamie",13,NA,1476,"",NA,8004,"Saint Albert Catholic  Schools",0,12,"Joe Connolly","Other Administrator","400 Gleason Avenue","","Council Bluffs","51503",7123299000,7123280228,"connollyj@saintalbertschools.org","POINT (-95.821227 41.260942)","51503","(-95.821227 41.260942)",TRUE,"Middle",c(-95.821227, 41.260942)
